State,Clinic Name,District,Clinic Address,Lat/Long,Designation (SPC/DPC),"Clinic Status (Active/
Inactive)",clinic_lat,clinic_lon,formatted_address
Andhra Pradesh,SMC - Vijayawada - Wednesday,NTR ,"Room No. 8B, OP Building, Government General Hospital, (SMC), GM8C+H4R, NH16 Service Road, Beside NTR Health University, Ring Road, Gunadala, NTR District Vijayawada  A.P PIN - 520008. ",,SPC,Active,16.5164879,80.6702523,"GM8C+H4R, NH 16 Service Rd, Beside NTR Health University, Gunadala, Vijayawada, Andhra Pradesh 520008, India"
Andhra Pradesh,KGH - Visakhapatnam - Friday,Visakhapatnam,"OP  No. 10, King George Hospital, Maharani Peta, Near Jagadamba, Visakhapatnam, A.P PIN - 530002.",,DPC,Active,17.7087374,83.3060385,"P854+FCV, KGH Down Rd, Opp KGH OP Gate, Maharani Peta, Visakhapatnam, Andhra Pradesh 530002, India"
Andhra Pradesh,SVRRGGH - Tirupati - Thursday,Tirupati,"Ortho Dept, Room No. 3, SVRRG Tirupati, CURE International India Trust, Alipiri Road, Tirupati District, Andhra Pradesh PIN - 517501. ",,DPC,Active,13.6447357,79.40576790000001,"JCV4+V8R, Alipiri Rd, Alipiri Gate, Sri Padmavati Mahila Visvavidyalayam, Tirupati, Andhra Pradesh 517507, India"
Andhra Pradesh,RCDH - Visakhapatnam - Thursday,Visakhapatnam,"OP Block, Rani Chandramani Devi Hospital, Near Peda Waltair, Bio Daiversity Park, Mantal  Hospital Back side, Peda Wltair, Visakhapatnam, AP - 530017.",,DPC,Active,17.7288886,83.3368582,"Shop No. 17, Chinmaya Marg, Pedda Waltair Junction, Lawsons Bay Colony, Pedda Waltair, Visakhapatnam, Andhra Pradesh 530017, India"
Andhra Pradesh,SMC - Vijayawada -  Tuesday,NTR ,"Room No. 8B, OP Building, Government General Hospital, (SMC), GM8C+H4R, NH16 Service Road, Beside NTR Health University, Ring Road, Gunadala, NTR District Vijayawada A.P PIN - 520008.",,SPC,Active,16.5164879,80.6702523,"GM8C+H4R, NH 16 Service Rd, Beside NTR Health University, Gunadala, Vijayawada, Andhra Pradesh 520008, India"
Andhra Pradesh,GGH - Kakinada - Thursday,East Godavari,"Government General Hospital, OP Block,  Room No - 09, Ortho Department, Zilla Parishad Road, Near Old Bustand, Kakinada, AP - 533001",,DPC,Active,16.9574625,82.2245456,"Old Bus Stand Rd, Kakinada, Andhra Pradesh 533001, India"
Andhra Pradesh,GGH - Kakinada - Friday,East Godavari,"Government General Hospital, OP Block,  Room No - 09, Ortho Department, Zilla Parishad Road, Near Old Bustand, Kakinada, AP - 533001",,DPC,Active,16.9574625,82.2245456,"Old Bus Stand Rd, Kakinada, Andhra Pradesh 533001, India"
Andhra Pradesh,RIMS - Ongole - Friday,Prakasam,"Rajiv Gandhi Institute of Medical Sciences, Ongole, Bhaghya Nagar, 5th Line, Ongole, Prakasam District, A. P - 523001.",,DPC,Active,15.4879528,80.0471672,"Gopal Nagar 5th Ln, Bhagyanagar, Ongole, Andhra Pradesh 523001, India"
Andhra Pradesh,ACSR - Nellore - Thursday,Nellore,-,,-,Inactive,14.4425987,79.98645599999999,"Nellore, Andhra Pradesh, India"
Andhra Pradesh,AH - Rampachodavaram - Tuesday,Alluri Sitarama Raju ,"District Hospital, (GGH - Eluru), R.R. Peta Main Road, Eluru District, Andhra Pradesh  PIN - 534006.",,-,Inactive,16.7129049,81.0951257,"Government General Hospital, Ashok Nagar, Eluru, Andhra Pradesh 534006, India"
Andhra Pradesh,GGH - Anatapur - Wednesday,Anantapur,"OP No.9, Opp DM&HO Office, Government General Hospital, Aravind Nagar, Anantapur, A.P - 515101.",,DPC,Active,14.6709005,77.5943719,"Government hospital, Gulzarpet, Anantapur, Andhra Pradesh 515001, India"
Andhra Pradesh,GGH - Kurnool - Friday ,Kurnool,"OP No. 06, Ortho, Government General Hospital, Kurnool, Budavarapupeta, Kurnool, A.P - 518002.",,DPC,Active,15.8188146,78.0397689,"Budhwarpet Rd, Budhawara Peta, Alluri Sitarama Raju Nagar, Kurnool, Andhra Pradesh 518002, India"
Andhra Pradesh,GGH - Guntur - Wednesday,Guntur,"Government General Hospita, Railway Station Opp, Rail pet, Guntur District, A.P - 522004.",,DPC,Active,16.2994719,80.4430526,"7CXV+Q6M, Sambasiva Pet, Guntur, Andhra Pradesh 522001, India"
Andhra Pradesh,GGH - Guntur - Thursday,Guntur,"Government General Hospita, Railway Station Opp, Rail pet, Guntur District, A.P - 522004.",,DPC,Active,16.2994719,80.4430526,"7CXV+Q6M, Sambasiva Pet, Guntur, Andhra Pradesh 522001, India"
Andhra Pradesh,RIMS - Kadapa - Thursday,Kadapa,"OP Block, Rajiv Gandhi Institute of Medical Sciences, Puttampalli Area, Kadapa, Kapada District, AP -  516002.",,DPC,Active,14.433165,78.864716,"Puttampalli, Andhra Pradesh 516002, India"
Andhra Pradesh,RIMS - Srikakulam - Wednesday,Srikakulam,-,,-,Inactive,18.2949165,83.89380179999999,"Srikakulam, Andhra Pradesh, India"
Andhra Pradesh,Government General Hospital - Vizianagaram - Thursday,Vizianagaram,"OP No.07, Ortho Department, MR Government Hospital, Vizianagaram, Vizianagaram District, A.P - 535002.",,DPC,Active,18.106056,83.4188201,"Hospital Rd, Rajiv Nagar Colony, Babametta, Jammu Narayana Puram Rural, Andhra Pradesh 535002, India"
Andhra Pradesh,District Hospital - Anakapalli - Tuesday,Anakapalli,-,,-,-,17.6896435,83.0023634,"Anakapalle, Andhra Pradesh, India"
Andhra Pradesh,District Hospital - Narsipatnam - Monday,Narsipatnam,-,,-,-,17.6676424,82.6106868,"Narsipatnam, Andhra Pradesh 531116, India"
Andhra Pradesh,Government General Hospital - Eluru - Friday,Eluru,"District Hospital, (GGH - Eluru), R.R. Peta Main Road, Eluru District, Andhra Pradesh  PIN - 534006.",,SPC,Active,16.7129049,81.0951257,"Government General Hospital, Ashok Nagar, Eluru, Andhra Pradesh 534006, India"
Andhra Pradesh,Government General Hospital - Chittoor - Wednesday,Chittoor,"Government General Hospital, Church Street, Thendabanda Dargah, Chittoor District , A.P - 517001.",,DPC,Active,13.2178125,79.0926423,"639V+43C, Church St, Thenabanda Dargah, Chittoor, Andhra Pradesh 517001, India"
Andhra Pradesh,Government General Hospital - Machilipatnam - Monday,Krishna,"OP Block - 06,Government General Hospital,  Noble Road, Machilipatnam, Krishna District, AP - 521001.",,DPC,Active,16.1845593,81.146787,"Noble College Rd, Machilipatnam, Andhra Pradesh 521001, India"
Andhra Pradesh,Area Hospital - Bapatla - Monday,Bapatla,"Bapatla Area Hospital, Railwaystation opp, Sathyanarayanapuram, Bapatla District, AP - 522101",,DPC,Active,15.9076107,80.4701688,"WF5C+23V, GOVT Hospital Rd, 13th Ward, Satyannarayana Puram, Bapatla, Andhra Pradesh 522101, India"
Arunachal Pradesh,"Tomo Riba Institute of Health and Medical Sciences, Naharlagun, ",Papum Pare, TRIHMS Naharlagun Arunachal Pradesh 791110,,SPC,Active,27.1040113,93.69106099999999,"National Highway 52A, Old Assembly Complex, Naharlagun, 791110"
Assam,"Guwahati Medical College & Hospital, Guwahati",Kamrup ,"Guwahati Medical College and Hospital, Guwahati, Assam, India ",,SPC & DPC,Active ,26.1542109,91.77007139999999,"5Q3C+M2P Narakasur Hilltop, Bhangagarh, Guwahati, Assam 781032, India"
Assam,"Assam Medical College & Hospital, Dibrugarh",Dibrugarh ,"Assam Medical College and Hospital, Dibrugarh, Assam, India ",,DPC,Active ,27.4886771,94.9405412,"AMC Rd, Barbari, Dibrugarh, Assam 786002, India"
Assam,"Silchar Medical College & Hospital, Silchar",Cachar,"Silchar Medical College and Hospital, Silchar",,DPC,Active ,24.7758006,92.794962,"Road, beside Indian Post, Ghungoor, Masimpur, Silchar, Uttar Krishnapur Pt III, Assam 788014, India"
Assam,"Tezpur Medical College & Hospital, Tezpur",Sontipur ,"Tezpur Medical College and Hospital, Tezpur, Assam, India ",,DPC,Active ,26.6816527,92.6527825,"NH15, Medical College, Tumuki, Tezpur, Assam 784153, India"
Assam,"Jorhat Medical College & Hospital, Jorhat",Jorhat ,"Jorhat Medical College and Hospital, Jorhat, Assam, India ",,DPC,Active ,26.7425738,94.19510869999999,"P5VW+22H, Kushal Konwar Path, Kushal Nagar, Barbheta, Jorhat, Assam 785001, India"
Bihar,"PMCH,Patna",Patna ,child ward orthopaedic department patna medical College and hospital ,,SPC,Active ,25.6216207,85.16109949999999,"Ashok Rajpath Rd, Patna University Campus, Patna, Bihar 800001, India"
Bihar,"NMCH, Patna",Patna ,orthopaedic OPD Ground floor Nmch patna ,,DPC,Active ,25.600334,85.17397299999999,"B-8 ,New boys hostel,Nalanda, medical college, Bhootnath Rd, Mahatma Gandhi Nagar, Chitragupta Nagar, Patna, Bihar 800026, India"
Bihar,"JLNMCH, Bhagalpur",Bhagalpur ,Orthopaedic OPD Ground floor Jlnmch bhagalpur ,,DPC,Active ,25.2569848,86.9936682,"7262+R2J, S. R, Rajpath, Katahalbari, Khanjarpur, Bhagalpur, Bihar 812001, India"
Bihar,"DMCH, Darbhanga",Darbhanga ,cure clubfoot dmch behind skin wardnear Nasha Mukti kendra ,,DPC,Active ,26.1330064,85.89935140000001,"DMCH Rd, DMCH Campus, Laheriasarai, Darbhanga, Bihar 846003, India"
Bihar,"ANMCH, Gaya",Gaya,Orthopaedic OPD near main emergency annmch gaya,,DPC,Active ,24.770954,84.9614342,"Magadha Medical Medical, Gaya - Sherghati Rd, Neema Tola, Gaya, Bihar 823001, India"
Bihar,"SADAR, Hajipur",Hajipur ,child ward orthopaedic OPD haipur sadar hospital ,,SPC,Active ,25.6914157,85.2090502,"Hospital Road, Hajipur, Bihar 844128, India"
Bihar,"IGIMS, Patna",Patna,Main emergency child ot IGIMS patna,,DPC,Active ,25.6097119,85.0899338,"Sheikhpura, Patna, Bihar 800014, India"
Chandigarh,"Govt Medical College & Hospital, Chandigarh, Sec -32",Chandigarh,"GMCH-32, CHANDIGARH",,SPC,Active ,30.7063295,76.7774508,"Gmch campus, 32C, Sector 32, Chandigarh, 160047, India"
Chandigarh,"CH, Post Graduate Institute of Medical Education and Reasearch, Sec 12",Chandigarh,"PGIMS-SECTOR 12,Chandigarh",,SPC,Active ,30.7667459,76.7773869,"Sector 12, Chandigarh, India"
Chhattisgarh,"Medical College ,Raipur",Raipur,"Jail Road,Moudhapara,Raipur,Chhattisgarh-492001",,DPC,Active,21.2517979,81.6407956,"Jail Rd, Moudhapara, Raipur, Chhattisgarh, India"
Chhattisgarh,"Medical College and Hospital, Jagdalpur",Jagdalpur,"GMC Jagdalpur,Dimrapal,Jagdalpur,Chhattisgarh-494001",,DPC,Active,19.0828471,82.0189182,"Dimrapal, Jagdalpur, Chhattisgarh 494001, India"
Chhattisgarh,"District Hospital ,Bilaspur,CG ",Bilaspur,"District Hospital,Near Old Bus Stand,Bilaspur",,DPC,Active,22.0758508,82.1582766,"Old, Bus Stand, Bilaspur, Telipara, Chhattisgarh 495001, India"
Chhattisgarh,"Medical College and Hospital, Rajnandgaon",Rajnandgaon,"GMC ,Pendri,Rajnandgaon,Chhattisgarh",,DPC,Active,21.1705169,80.9622388,"Pendri, Chhattisgarh 491441, India"
Chhattisgarh,"District Hospital ,Raipur,CG",Raipur,"3rd Floor,Opp-DEIC,District Hospital,Byron Bazar,Janta Colony,Raipur,Chhattisgarh-492001",,DPC,Active,21.2343804,81.64209029999999,"Byron Bazar, Janta Colony, Raipur, Chhattisgarh 492001, India"
Chhattisgarh,Dhamtari,Not Functional,Not Fuctional,,,Inactive,21.2786567,81.8661442,"Chhattisgarh, India"
Chhattisgarh,Indra Gnadhi District Hospital  Korba,Korba,"District Hospital,Rajgamar Road,Near Ind Area,Korba,Chhattisgarh",,DPC,Active,22.3645419,82.74374379999999,"9P7V+RF9, Rajgamar Rd, Kharmora, Industrial Area, Korba, Chhattisgarh 495682, India"
Chhattisgarh,"Medical College and Hospital, Ambikapur",Ambikapur,"District Hospital,Ambikapur,Surguja,Chhattisgarh",,,Inactive,23.1095959,83.19470729999999,"District Hospital, Ambikapur, Manipur, Chhattisgarh 497001, India"
Chhattisgarh,District Hospital Raigarh,Raigarh,"Kirodimal District Hospital,Nayaganj,Raigarh,Chhattisgarh,496001",,DPC,Active,21.8931028,83.40351629999999,"VCV3+6CR, Chakradhar Nagar, Raigarh, Chhattisgarh 496001, India"
Chhattisgarh,"Medical College ,Raipur, Friday",Raipur,"Jail Road,Moudhapara,Raipur,Chhattisgarh-492001",,DPC,Active,21.2517979,81.6407956,"Jail Rd, Moudhapara, Raipur, Chhattisgarh, India"
Chhattisgarh,"District Hospital, Durg",Durg,"District Hospital,Pachripara,Durg",,DPC,Active,21.1912808,81.2824045,"Pachri Para, Chhattisgarh 491001, India"
Chhattisgarh,"Medical College and Hospital, Rajnandgaon, Saturday",Rajnandgaon,"GMC ,Pendri,Rajnandgaon,Chhattisgarh",,DPC,Active,21.1705169,80.9622388,"Pendri, Chhattisgarh 491441, India"
Chhattisgarh,"Medical College ,Raipur, Wednesdsay",Raipur,"Jail Road,Moudhapara,Raipur,Chhattisgarh-492001",,DPC,Active,21.2517979,81.6407956,"Jail Rd, Moudhapara, Raipur, Chhattisgarh, India"
Chhattisgarh,"District Hospital ,Janjgir Champa",Champa,,,,Inactive,22.0300039,82.6515036,"Champa, Chhattisgarh 495671, India"
Chhattisgarh,AIIMS Hospital Raipur,Raipur,"1st Floor,D-Block,Ortho OPD,Gate No 4,Oppo Gurudwara,Tatiband,Raipur,Chhattisgarh,492099",,SPC,Active,21.2575665,81.5749932,"Street Number 4, Shri Shanti Nath Nagar, Tatibandh, Raipur, Chhattisgarh 492099, India"
Chhattisgarh,"District Hospital , Jashpur",Jashpur,,,,Inactive,22.8759331,84.1381159,"Jashpur Nagar, Chhattisgarh 496331, India"
Chhattisgarh,"District Hospital, Kawardha",Kawardha,"District Hospital,Kawardha,Chhattisgarh-491995",,DPC,Active,22.0085343,81.2179567,"Hospital Rd, Kawardha, Chhattisgarh 491995, India"
Chhattisgarh,"District Hospital, Bijapur",Bijapur,"District Hospital,Bijapur,Chhattisgarh",,,-,18.79407,80.812371,"Unnamed Road, Bijapur, Chhattisgarh 494444, India"
Delhi,Kalawati (Wed),Central Delhi,Kalawati Saran Hospital new delhi 110001,POINT (77.210864223727 28.63590825914862),DPC,Active,28.63590825914862,77.210864223727,Kalawati Saran Hospital new delhi 110001
Delhi,CNBC (Wednesday),East Delhi,"Chacha Nehru Bal Chikitsalaya,Geeta Colony New Delhi-110031",POINT (77.26869418139758 28.65301672039303),ASPC,Active,28.65301672039303,77.26869418139758,"Chacha Nehru Bal Chikitsalaya,Geeta Colony New Delhi-110031"
Delhi,Kalawati (Friday),Central Delhi,Kalawati Saran Hospital new delhi 110001,POINT (77.210864223727 28.63590825914862),DPC,Active,28.63590825914862,77.210864223727,Kalawati Saran Hospital new delhi 110001
Delhi,St. Stephen's (Wed),North East Delhi,"St Stephen Hospital,Tis Hazari marg New Delhi 110054",POINT (77.21445711874273 28.67010662589294),DPC,Active,28.67010662589294,77.21445711874273,"St Stephen Hospital,Tis Hazari marg New Delhi 110054"
Delhi,Maharishi Valmiki (Thursday),North West Delhi,"Maharishi Valmiki Hospital ,Puth Khurd New Delhi-110039",POINT (77.21838617715096 28.677983025248423),,Active,28.677983025248423,77.21838617715096,"Maharishi Valmiki Hospital ,Puth Khurd New Delhi-110039"
Delhi,Deen Dayal Upadhyay Hospital (Mon),West Delhi,"Deen Dayal Upadhyay Hospital,Hari Nagar New Delhi-110064",POINT (77.11229629489027 28.628186485539718),ASPC,Active,28.628186485539718,77.11229629489027,"Deen Dayal Upadhyay Hospital,Hari Nagar New Delhi-110064"
Delhi,Safdarjung (Thursday),South Delhi,"Safdarjung Hospital,Ansari nagar East New Delhi-110029",POINT (77.23691615256156 28.63931755133124),ASPC,Active,28.63931755133124,77.23691615256156,"Safdarjung Hospital,Ansari nagar East New Delhi-110029"
Delhi,LNJP (Fri),Central Delhi,"Lok Nayak Hospital,Delhi Gate New Delhi-110002",POINT (77.23691615256156 28.63931755133124),Volunteer,Active,28.63931755133124,77.23691615256156,"Lok Nayak Hospital,Delhi Gate New Delhi-110002"
Delhi,AIIMS (Friday),South Delhi,"All India Institute Of Medical Science ,Sri Aurobindo Marg,Ansari Nagar East New Delhi-110029",POINT (77.20998072641311 28.567742759028594),ASPC,Active,28.567742759028594,77.20998072641311,"All India Institute Of Medical Science ,Sri Aurobindo Marg,Ansari Nagar East New Delhi-110029"
Delhi,CNBC (Thursday),East Delhi,"Chacha Nehru Bal Chikitsalaya,Geeta Colony New Delhi-110031",POINT (77.26869418139758 28.65301672039303),DPC,Active,28.65301672039303,77.26869418139758,"Chacha Nehru Bal Chikitsalaya,Geeta Colony New Delhi-110031"
Delhi,Kalawati (Mon),Central Delhi,Kalawati Saran Hospital new delhi 110001,POINT (77.210864223727 28.63590825914862),DPC,Active,28.63590825914862,77.210864223727,Kalawati Saran Hospital new delhi 110001
Delhi,SSPGTI ,Noida,"Post Graduate Insitute Of Child Health Sector-30, Noida-201303","28.57718830114581, 77.33768769987536",Volunteer,Active,28.57718830114581,77.33768769987536,"Post Graduate Insitute Of Child Health Sector-30, Noida-201303"
Delhi,BKCH,Haryana,"Baadshah Khan Civil Hospital,Bk Chowk, Faridabad, Haryana-121006","28.39396286257089, 77.29829728504167",,InActive,28.39396286257089,77.29829728504167,"Baadshah Khan Civil Hospital,Bk Chowk, Faridabad, Haryana-121006"
Delhi,"C.H, Gurgoan",Haryana,"Poly Clinic Sector 31,Gurugram Haryana-12202","28.4783313153449, 77.03431961389037",DPC,Active,28.4783313153449,77.03431961389037,"Poly Clinic Sector 31,Gurugram Haryana-12202"
Delhi,Maharaja Agrasen Hospital,West Delhi,"Maharaja Agrasen Hospital,Punjabi Bagh  New Delhi-110026","28.67433948261137, 77.13399019632512",,InActive,28.67433948261137,77.13399019632512,"Maharaja Agrasen Hospital,Punjabi Bagh  New Delhi-110026"
Delhi,GTB THU,East Delhi,"Guru Teg Bahadur Hospital,GTB Enclave Dilshad Garden New Delhi-110095","28.690400275023276, 77.3092620713984",DPC,Active,28.690400275023276,77.3092620713984,"Guru Teg Bahadur Hospital,GTB Enclave Dilshad Garden New Delhi-110095"
Delhi,GTB FRI,East Delhi,"Guru Teg Bahadur Hospital,GTB Enclave Dilshad Garden New Delhi-110095","28.690400275023276, 77.3092620713984",DPC,Active,28.690400275023276,77.3092620713984,"Guru Teg Bahadur Hospital,GTB Enclave Dilshad Garden New Delhi-110095"
Gujarat,"Civil Hospital, Ahmedabad - Monday",Ahmedabad," Ahmedabad Civil Hospital ,Haripura,Asarava,Gali no-2,OPD no-2, Orthopedic Department,",,DPC,Active,23.0512301,72.6015664,"D Block Asarwa, Haripura, Office of the Medical Superintendent Civil Hospital, Haripura, Asarwa, Ahmedabad, Gujarat 380016, India"
Gujarat,"Civil Hospital, Ahmedabad - Friday",Ahmedabad," Ahmedabad Civil Hospital ,Haripura,Asarava,Gali no-2,OPD no-2, Orthopedic Department,",,DPC,Active,23.0512301,72.6015664,"D Block Asarwa, Haripura, Office of the Medical Superintendent Civil Hospital, Haripura, Asarwa, Ahmedabad, Gujarat 380016, India"
Gujarat,"Civil Hospital, Ahmedabad - Wednesday",Ahmedabad," Ahmedabad Civil Hospital ,Haripura,Asarava,Gali no-2,OPD no-2, Orthopedic Department,",,DPC,Active,23.0512301,72.6015664,"D Block Asarwa, Haripura, Office of the Medical Superintendent Civil Hospital, Haripura, Asarwa, Ahmedabad, Gujarat 380016, India"
Gujarat,"P.D.U. Hospital, Rajkot - Monday",Rajkot,"PDU Hospital Rajkot,Jamnagar Road ,OPD no-7 Orthopedic Department",,DPC,Active,22.3036431,70.8006297,"8R32+GHR PDU Campus, Dr. BR Ambedkar Chowk, opp. SBI, Naval Nagar, Sadar, Rajkot, Gujarat 360001, India"
Gujarat,"P.D.U. Hospital, Rajkot - Friday",Rajkot,"PDU Hospital Rajkot,Jamnagar Road ,OPD no-7 Orthopedic Department",,DPC,Active,22.3036431,70.8006297,"8R32+GHR PDU Campus, Dr. BR Ambedkar Chowk, opp. SBI, Naval Nagar, Sadar, Rajkot, Gujarat 360001, India"
Gujarat,"P.D.U. Hospital, Rajkot - Wednesday",Rajkot,"PDU Hospital Rajkot,Jamnagar Road ,OPD no-7 Orthopedic Department",,DPC,Active,22.3036431,70.8006297,"8R32+GHR PDU Campus, Dr. BR Ambedkar Chowk, opp. SBI, Naval Nagar, Sadar, Rajkot, Gujarat 360001, India"
Gujarat,"New Civil Hospital, Surat - Friday",Surat,"New Civil Hospital Surat ,orthopadic Department ,OPD no-6,Majauragate",,Paid Volunteer,Active,21.1789521,72.8215488,"Ring Road, Opp Stem Cell Hospital, Khatodra Wadi, Majura Gate, Surat, Gujarat 395001, India"
Gujarat,"New Civil Hospital, Surat - Thursday",Surat,"New Civil Hospital Surat ,orthopadic Department ,OPD no-6,Majauragate",,Paid Volunteer,Active,21.1789521,72.8215488,"Ring Road, Opp Stem Cell Hospital, Khatodra Wadi, Majura Gate, Surat, Gujarat 395001, India"
Gujarat,"S.S.G. Hospital, Vadodara - Tuesday",Vadodara,"SSG Hospital Vadodara,Ortho OPD -3 ,Jail Road",,DPC,Active,22.3022709,73.1909178,"3, Jail Rd, Anandpura, Vadodara, Gujarat 390001, India"
Gujarat,"New Civil Hospital, Surat - Wednesday",Surat,"New Civil Hospital Surat ,orthopadic Department ,OPD no-6,Majauragate",,Paid Volunteer,Active,21.1789521,72.8215488,"Ring Road, Opp Stem Cell Hospital, Khatodra Wadi, Majura Gate, Surat, Gujarat 395001, India"
Gujarat,"G.G. Hospital, Jamnagar - Tuesday",Jamnagar,"G.G.G. Hospital Jamnagar ,Ortho OPD Room no-10",,DPC,Active,22.4784326,70.06398829999999,"G G Hospital, F3H7+9HH, Pandit Nehru Marg, Indradeep Society, Jamnagar, Gujarat 361008, India"
Gujarat,"S.S.G. Hospital, Vadodara - Wednesday",Vadodara,"SSG Hospital Vadodara,Ortho OPD -3 ,Jail Road",,DPC,Active,22.3022709,73.1909178,"3, Jail Rd, Anandpura, Vadodara, Gujarat 390001, India"
Gujarat,"G.G. Hospital, Jamnagar - Monday",Jamnagar,"G.G.G. Hospital Jamnagar ,Ortho OPD Room no-10",,DPC,Active,22.4784326,70.06398829999999,"G G Hospital, F3H7+9HH, Pandit Nehru Marg, Indradeep Society, Jamnagar, Gujarat 361008, India"
Gujarat,"Sir T. Hospital, Bhavnagar - Thursday",Bhavnagar,"Sir T Hospital Bhavnagar ,Kalanala orthopadic OPD 53.",,DPC,Active,21.766356,72.14257049999999,"Q48V+G2W, Kalanala, Panwadi, Bhavnagar, Gujarat 364002, India"
Gujarat,"Sir T. Hospital, Bhavnagar - Wednesday",Bhavnagar,"Sir T Hospital Bhavnagar ,Kalanala orthopadic OPD 53.",,DPC,Active,21.766356,72.14257049999999,"Q48V+G2W, Kalanala, Panwadi, Bhavnagar, Gujarat 364002, India"
Gujarat,"S.S.G. Hospital, Vadodara - Monday",Vadodara,"SSG Hospital Vadodara,Ortho OPD -3 ,Jail Road",,DPC,Active,22.3022709,73.1909178,"3, Jail Rd, Anandpura, Vadodara, Gujarat 390001, India"
Gujarat,"G.G. Hospital, Jamnagar - Wednesday",Jamnagar,"G.G.G. Hospital Jamnagar ,Ortho OPD Room no-10",,DPC,Active,22.4784326,70.06398829999999,"G G Hospital, F3H7+9HH, Pandit Nehru Marg, Indradeep Society, Jamnagar, Gujarat 361008, India"
Gujarat,"Sir T. Hospital, Bhavnagar - Tuesday",Bhavnagar,"Sir T Hospital Bhavnagar ,Kalanala orthopadic OPD 53.",,DPC,Active,21.766356,72.14257049999999,"Q48V+G2W, Kalanala, Panwadi, Bhavnagar, Gujarat 364002, India"
Gujarat,"GMERS Medical College & Hospital, Valsad - Wednesday",Valsad,"GMERS Hospital Valsad ,Halar Road ,Nanakwada-396001",,DPC,Active,20.5936985,72.9205628,"Suraj Srushti Halar Rd, Nankwada, Valsad, Gujarat 396001, India"
Gujarat,"GMERS Medical College & Hospital, Valsad - Thursday",Valsad,"GMERS Hospital Valsad ,Halar Road ,Nanakwada-396001",,DPC,Active,20.5936985,72.9205628,"Suraj Srushti Halar Rd, Nankwada, Valsad, Gujarat 396001, India"
Gujarat,"Gujarat Adani Institute of Medical Sciences & Hospital, Bhuj-Kutch - Friday",Kutch,Gujarat Adani institute of Madical Science & Hospital(GK General Hospital Bhuj room no-40),,DPC,Active,23.2402235,69.6743679,"adani institute of medical science, adani institute of medical science, GAIMS Campus, Bhuj, Gujarat 370001, India"
Gujarat,"GMERS Medical College & Hospital, Gandhinagar - Tuesday",Gandhinagr,"Gandhinagar Civil Hospital,Orthopadic Opd,Block -A,Sector 12B -382016",,DPC,Active,23.2185054,72.63974259999999,"Shop 8, Micro Shopping Centre, Civil Hospital Campus, Sector 12, Sector 12B, Gandhinagar, Gujarat 382012, India"
Gujarat,"Civil Hospital, Palanpur - Friday",Banaskantha,"Palanpur civil hospital,Saak Market ,ortho opd -23",,DPC,Active,24.1750182,72.4346934,"Shak Market Road, Shimla Gate, Palanpur, Gujarat 385001, India"
Gujarat,"GMERS Medical College & Hospital, Junagadh - Tuesday",Junagadh,"Majevdi Gate oppsite Civil Hospital Junagadh,ortho opd-102",,Paid Volunteer,Active,21.5371663,70.4599154,"GFP5+VX2 Majevdi Gate, Khamdhrol Rd, Khwaja Nagar, Junagadh, Gujarat 362001, India"
Gujarat,"GMERS Medical College & Hospital, Himmatnagar - Wednesday",Sabarkantha,"hadiyol Road ,near Politecnic collage ,Sahkari jim,ortho opd-8",,DPC,Active,23.566299,72.984412,"Hadiyol Rd, Gujarat 383001, India"
Gujarat,"GMERS Medical College & Hospital, Dharpur - Patan - Wednesday",Patan,"GMERS Hospital Dharpur ,Patan (N.G) -384265",,DPC,Active,23.8457594,72.1919068,"R5WR+8Q3, Patan, Gujarat 384290, India"
Gujarat,"Civil Hospital, Dahod - Tuesday",Dahod,Zydus madical collage  and Hospital Dahod,,DPC,Active,22.8367284,74.256227,"R7P4+MFX, National Highway 113, Burhani Society, Govindnagar, Dahod, Gujarat 389151, India"
Gujarat,"Civil Hospital, Dahod - Friday",Dahod,Zydus madical collage  and Hospital Dahod,,DPC,Active,22.8367284,74.256227,"R7P4+MFX, National Highway 113, Burhani Society, Govindnagar, Dahod, Gujarat 389151, India"
Gujarat,"GMERS Medical College & Hospital, Junagadh - Friday",Junagadh,"Majevdi Gate oppsite Civil Hospital Junagadh,ortho opd-102",,Paid Volunteer,Active,21.5371663,70.4599154,"GFP5+VX2 Majevdi Gate, Khamdhrol Rd, Khwaja Nagar, Junagadh, Gujarat 362001, India"
Gujarat,"Civil Hospital, Deesa",Banaskantha,"Civil hospital Deesa ,nr bagicha stop ,main bajar ,ta-Deesa,Dist-Banaskantha-385535",,DPC,Active,24.257159,72.1800224,"Bagicha Rd, Deesa, Gujarat 385535, India"
Gujarat,"Civil Hospital, Nadiad - Saturday",Kheda,JZHMN civil hospital road Nadiad -387001,,Paid Volunteer,Active,22.6728116,72.8770766,"Civil Hospital Rd, Bhakti Nagar, Nadiad, Gujarat 387001, India"
Gujarat,"Civil Hospital, Godhra - Wednesday",Panchmahal,"GMERS Civil Hospital Godhara ,Orthopedic Opd no-8,Opposite Emergency Gate",,DPC,Active,22.7726911,73.61958440000001,"Civil Hospital to Gandhi Chowk Rd, Panjarapole, Kalal Darwaja, Godhra, Gujarat 389001, India"
Gujarat,"Civil Hospital, ChhotaUdepur - Tuesday",Chhotaudaipur,"General Hospital Chhotaudaipur,Ortho opd .",,DPC,Active,22.3056569,74.0192872,"8249+7P7, Chhota Udepur, Gujarat 391165, India"
Gujarat,"Civil Hospital, Bharuch - Wednesday",Bharuch,General Hospiatal Bharuch.(KMCRI Medical Collage)Ortho opd no-3,,DPC,Active,21.7034716,72.9903314,"New, Civil Hospital Rd, Campus, Bharuch, Gujarat 392001, India"
Gujarat,"Civil Hospital, Mehsana - Monday",Mahesana,"General Hospital Mehsana .near old busstand,ortho opd-M-13",,DPC,Active,23.6079288,72.3914909,"Opp. S. T. Bus Station, Raod, near Raj Mahel, Pilaji Ganj, Mehsana, Gujarat 384001, India"
Gujarat,"Civil Hospital, Amreli - Tuesday",Amreli,"Behind ST Depo,Shantabaa General hospital Amreli-365601",,DPC,Active,21.6055682,71.2208998,"General Hospital Campus, B/H GSRTC Central Depo, Hospital Road, D.L.B. Society, Amreli, Gujarat 365601, India"
Gujarat,"Civil Hospital, Vyara - Friday",Tapi,"General Hospital ,Opp daxinapath Vidhyalaya vyara Tapi-394655",,DPC,Active,21.1076893,73.3829578,"Dhuliya, 495M+35G, Road, Vyara, Gujarat 394650, India"
Gujarat,"GMERS Hospital, Gotri",Vadodara,"GEMERS Hospital Gotri ,Ortho OPD -3,Vadodara",,DPC,Active,22.3325096,73.181107,"3, Vadodara, Nizampura Char Rasta, Bhakti Nagar, Pensionpura, Nizampura, Vadodara, Gujarat 390002, India"
Gujarat,"State Hospital, Dharampur, Valsad",Valsad,"State hospital Dharampur ,tran darvaja ,Garden road dharampur Valsad ",,DPC,Active,20.5389018,73.16662740000001,"Tran Darwaja, Garden Rd, Tal, Dharampur, Gujarat 396050, India"
Gujarat,"GMERS Medical college & Hospital, Sola, Ahmedabad",Ahmedabad,"Sola civil Hospital,Block -A,Room no-3,ortho opd",,DPC,Active,23.0898437,72.6601575,"Hospital Block-A, ESIC GENERAL HOSPITAL NARODA, Noble Nagar Tenament, Ahmedabad, Gujarat 382340, India"
Gujarat,"GMERS Medical college & Hospital, Vadnagar, Friday",Mahesana,"GMERS General Hospital , Vadnagar, ortho opd First floor",,DPC,Active,23.7921629,72.6354685,"QJRP+V58, opp. G. M. E. R. S hospital, Vadnagar, Gujarat 384355, India"
Gujarat,"Civil Hospital, Petlad, Tuesday",Anand,"S.S.Hospital Petlad -388450,ortho opd ",,Paid Volunteer,Active,22.4879711,72.80069010000001,"S.s.hospital, Ashoka Society, Rangaipura, Petlad, Gujarat 388450, India"
Gujarat,"Civil Hospital, Navsari, Tuesday",Navsari,M.G.G.General Hospital opp jahangir talkies Navsari-396445,,DPC,Active,20.949334,72.9179077,"WWX9+P5M, Railway Station Rd, opp. Jahangir Cinema, Udyog Nagar, Vejalpore, Navsari, Gujarat 396445, India"
Gujarat,"General Hospital, Ahwa",Ahwa Dang,"General Hospital Ahwa ,Gandhi colony ,ta-Ahwa ,Di-Dang -394710",,DPC,Active,20.7614746,73.6892731,"SH 174, Ghandhi Colony, Ahwa, Gujarat 394710, India"
Gujarat,"General Hospital, Morbi",Morbi,"General Civil Hospital Morbi,ortho opd-7",,DPC,Active,22.8155933,70.83197009999999,"Town Hall, Sardar Nagar, Morbi, Gujarat 363641, India"
Gujarat,"General Hospital, Rajpipla",Narmada,"General Hospital rajpila ,vadia palace ,ortho opd-12",,DPC,Active,21.8611911,73.5199322,"near JAKATNAKA, GMERS MEDICAL COLLEGE, PALA E ROAD, Vadia, Rajpipla, Gujarat 393145, India"
Gujarat,Government Hospital Veraval,Veraval,Government Hospital Veraval,,Paid Volunteer,InActive,20.9113273,70.3594662,"W965+GQP, Rajendra Bhuvan Road, Veraval, Gujarat 362265, India"
Gujarat,Narendra Modi Medical College L.G Municipal General Hospital Ahmedabad,Ahmedabad,"Narendra Modi Medical College L.G Municipal General Hospital Ahmedabad,First floor ortho opd.near Adani CNG Pump",,SPC,Active,22.9984585,72.6043694,"XJX3+9PQ, Lala Lajpat Rai Marg, Balvatika, Archana Society, Bhairavnath, Maninagar, Ahmedabad, Gujarat 380008, India"
Gujarat,Government Hospital Gandhidham Rambagh Kutch,Kutch,Gandhidham Rambag Hospital ortho opd-7,,DPC,Active,23.0750009,70.1042334,"Rambagh Hospital Rd, Gandhidham, Gujarat, India"
Haryana,"Civil Hospital, Panchkula",Haryana,"sector-6,panchkula-HR",,SPC,Active,30.706579,76.8545201,"Sector 6, Panchkula, Haryana 134109, India"
Haryana,"Maharaja Agrasen Civil Hospital, Hisar",Haryana,Hisar- Bus stand,,DPC,Active,29.1491875,75.7216527,"Hisar, Haryana, India"
Haryana,"Pandit Bhagwat Dayal Sharma Post Graduate Institute of Medical Sciences, Rohtak",Haryana,PGIMS-Rohtak,,DPC,Active,28.8801261,76.6055682,"Medical Rd, Rohtak, Haryana 124001, India"
Haryana,"Chaudhary Bansilal Civil Hospital, Bhiwani",Haryana,Civil hospital- Bhiwani,,DPC,Active,28.7974024,76.1305335,"Q4WJ+X67, Ghanta Ghar Rd, Chowk, Krishna Colony, Bhiwani, Haryana 127021, India"
Himachal Pradesh,"Indira Gandhi Medical College, Shimla, Wednesday ",Shimla,"IGMC-SHIMLA, HIMACHAL",,DPC,Active,31.1064901,77.1822518,"Ridge Sanjauli Rd, Lakkar Bazar, Shimla, Himachal Pradesh 171001, India"
Himachal Pradesh,"Dr. Rajendra Prasad Govt Medical College, Kangra, Tuesday",kangra,"DR-RPGMC, TANDA",,DPC,-,32.1015129,76.3046335,"4823+JV2, Tanda Kholi, Himachal Pradesh 176001, India"
Himachal Pradesh,"Indira Gandhi Medical College, Shimla, Monday",Shimla,"IGMC-SHIMLA, HIMACHAL",,DPC,Active,31.1064901,77.1822518,"Ridge Sanjauli Rd, Lakkar Bazar, Shimla, Himachal Pradesh 171001, India"
Himachal Pradesh,"Dr. Rajendra Prasad Govt Medical College, Kangra, Friday",kangra,"DR-RPGMC, TANDA",,DPC,Active,32.1015129,76.3046335,"4823+JV2, Tanda Kholi, Himachal Pradesh 176001, India"
Jammu Kashmir,JLNM District Hospital ,Srinagar ,Rainawari ,,SPC,Active ,34.0945585,74.82539779999999,"Rainawari, Srinagar"
Jammu Kashmir,"GMC bakshi nagar jammu, Friday ",Jammu,"govt Medical college Bakshinagar Jammu , JK 180001",,DPC,Active ,32.7361128,74.8539737,"maheshpura, chowk, Bakshi Nagar, Jammu, 180001"
Jammu Kashmir,"SKIMS Medical college and Hospital, Thursday ",Srinagar,SKIMS MC Bemina,,SPC,Active ,34.0874961,74.7603244,"Bemina, Srinagar, 190018"
Jammu Kashmir,"GMC bakshi nagar  jammu, Thursday ",Jammu,"govt Medical college Bakshinagar Jammu , JK 180001",,DPC,Active ,32.7361128,74.8539737,"maheshpura, chowk, Bakshi Nagar, Jammu, 180001"
Jammu Kashmir,"GMC bakshi nagar jammu, Wednesday ",Jammu,"govt Medical college Bakshinagar Jammu , JK 180001",,DPC,Active ,32.7361128,74.8539737,"maheshpura, chowk, Bakshi Nagar, Jammu, 180001"
Jammu Kashmir,District Hospital Gandhi Nagar monday,Jammu,"District hospital Gandinagar Jammu, JK 180004",,DPC,Active ,32.705216,74.860034,"Gandhi Nagar, Jammu, 180004"
Jammu Kashmir,"Bone and Joint Hospital, Tuesday ",Srinagar ,Bone and joint Surgery Hospital barzullah ,,DPC,Active ,34.0520405,74.7973392,"Barzulla, Srinagar 190005"
Jammu Kashmir,"Bone and Joint Hospital, Wednesday",Srinagar,Bone and joint Surgery Hospital barzullah ,,DPC,Active ,34.0520405,74.7973392,"Barzulla, Srinagar 190005"
Jammu Kashmir,"Bone and Joint Hospital, Thurday ",Srinagar,Bone and joint Surgery Hospital barzullah ,,DPC,Active ,34.0520405,74.7973392,"Barzulla, Srinagar 190005"
Jammu Kashmir,"District Hospital Anantnag, Saturday",Anantnag,Govt District Hospital Anantnag ,,DPC,Active ,33.7311255,75.14870069999999,Anantnag
Jammu Kashmir,"District Hospital Anantnag, Friday",Anantnag,Govt District Hospital Anantnag ,,DPC,Active ,33.7311255,75.14870069999999,Anantnag
Jammu Kashmir,"Bone and Joint Hospital, Friday",Srinagar,Bone and joint Surgery Hospital barzullah ,,DPC,Active ,34.0520405,74.7973392,"Barzulla, Srinagar 190005"
Jharkhand,"RIMS, Ranchi - Fri",Ranchi ,RIMS Ranchi ,,SPC,Active ,23.3915056,85.3484537,"Rims Cir, Jora Talab, Bariatu, Ranchi, Jharkhand 834009, India"
Jharkhand,"District Hospital, Ranchi",Ranchi ,Main road Ranchi ,,SPC,Active ,23.3570663,85.3247114,"Mahatma Gandhi Main Rd, Ranchi, Jharkhand 834001, India"
Jharkhand,"RIMS, Ranchi, Tuesday",Ranchi ,RIMS Ranchi ,,SPC,Active ,23.3915056,85.3484537,"Rims Cir, Jora Talab, Bariatu, Ranchi, Jharkhand 834009, India"
Jharkhand,"RIMS, Ranchi, Wednesday",Ranchi ,RIMS Ranchi ,,SPC,Active ,23.3915056,85.3484537,"Rims Cir, Jora Talab, Bariatu, Ranchi, Jharkhand 834009, India"
Karnataka,Sparsh Hospital-Bangalore,Bangalore Urban,Nil,,Nil,Nil,12.9700247,77.6536125,"Bengaluru Urban, Karnataka, India"
Karnataka,Indira Gandhi Institute of Child Health-Bangalore,Bangalore Urban,"Indira Gandhi institute of child health
CURE clubfoot clinic ,Orthopedic Department,
WHPR+XR3, 1st Block, Siddapura, Jayanagar, Bengaluru, Karnataka-560029",POINT (77.59206852272833 12.937591717056408),DPC,Active ,12.937591717056408,77.59206852272833,"Indira Gandhi institute of child health
CURE clubfoot clinic ,Orthopedic Department,
WHPR+XR3, 1st Block, Siddapura, Jayanagar, Bengaluru, Karnataka-560029"
Karnataka,Victoria Hospital-Bangalore,Bangalore Urban,"City Market, Fort Road, Bengaluru, Karnataka 560002",POINT (77.57541979660013 12.965939330486481),DPC,Active ,12.965939330486481,77.57541979660013,"City Market, Fort Road, Bengaluru, Karnataka 560002"
Karnataka,St. Jhon’s Hospital Bangalore,Bangalore Urban,"St. John’s National Academy of Health Sciences,
Sarjapur Road, Bangalore - 560034
, Karnataka, India.",POINT (77.6011429451913 13.071838036895645),DPC,Active ,13.071838036895645,77.6011429451913,"St. John’s National Academy of Health Sciences,
Sarjapur Road, Bangalore - 560034
, Karnataka, India."
Karnataka,Vijayanagar Institute of Medical Science -Bellary,Bellary,"Contonment, Bellary  Karnataka, India, Vijayanagara, India 583104,",POINT (76.89670122277522 15.153175713113498),DPC,Active ,15.153175713113498,76.89670122277522,"Contonment, Bellary  Karnataka, India, Vijayanagara, India 583104,"
Karnataka,Belagavi Institute of Medical Science -Belagavi,Belagavi,"Dr B R Ambedkar Road, Sadashiv Nagar, Belagavi - 590001, Karnataka

",POINT (74.51157999256824 15.870685862971738),DPC,Active ,15.870685862971738,74.51157999256824,"Dr B R Ambedkar Road, Sadashiv Nagar, Belagavi - 590001, Karnataka

"
Karnataka,KIMS-Hubli,Hubballi,Nil,POINT (75.13242109561446 15.363065997595728),Nil,Nil,15.363065997595728,75.13242109561446,Nil
Karnataka,MRMC-Kalaburagi,Kalaburagi,"Basaveshwar Teaching & General Hospital Sedam Road, Kalaburagi Karnataka, Gulbarga, Karnataka 585105","17.326451698062332, 76.85395382883573",DPC,Active ,17.326451698062332,76.85395382883573,"Basaveshwar Teaching & General Hospital Sedam Road, Kalaburagi Karnataka, Gulbarga, Karnataka 585105"
Karnataka,Hassan Institute of Medical Science -Hassan,Hassan,"S.c. Hospital, Hassan, Karnataka 573201",POINT (76.11031634068489 13.10195977263058),DPC,Active ,13.10195977263058,76.11031634068489,"S.c. Hospital, Hassan, Karnataka 573201"
Karnataka,MMCRI-Mysore,Mysore,"Krishna Rajendra Hospital
Irwin Road, Devaraja Mohalla, Near Government College Of India Medicine And Hospital, Yadavagiri, Mysuru, Karnataka 570001",POINT (76.63414987819186 12.37991660310443),DPC,Active ,12.37991660310443,76.63414987819186,"Krishna Rajendra Hospital
Irwin Road, Devaraja Mohalla, Near Government College Of India Medicine And Hospital, Yadavagiri, Mysuru, Karnataka 570001"
Karnataka,Wenlock District Hospital-Mangalore,Mangalore,"Wenlock District Hospital
NG Road, Near Milagres Church, Bunder, Mangaluru, Karnataka 575001",POINT (74.84319537258531 12.86753466146709),DPC,Active ,12.86753466146709,74.84319537258531,"Wenlock District Hospital
NG Road, Near Milagres Church, Bunder, Mangaluru, Karnataka 575001"
Karnataka,CIMS -Chamarajanagar,Chamarajanagara,"Chamarajanagar Institute of Medical Sciences (CIMS),
Survey No.124,
Yadapura Village, Kasaba Hobli
Chamarajanagar Taluk & District - 571 313","11.901594109837443, 76.90453119259888",DPC,Active ,11.901594109837443,76.90453119259888,"Chamarajanagar Institute of Medical Sciences (CIMS),
Survey No.124,
Yadapura Village, Kasaba Hobli
Chamarajanagar Taluk & District - 571 313"
Kerala,"Medical College Hospital, Alappuzha - Monday",Alappuzha,Cure India Cluboot Clinic                                                                                                     T.D Medical College Vandanam NH-66 Alappuzha Dist.688005,POINT (76.34786639777295 9.417261042122943),Volunteer,Active,9.417261042122943,76.34786639777295,Cure India Cluboot Clinic                                                                                                     T.D Medical College Vandanam NH-66 Alappuzha Dist.688005
Kerala,"Medical College Hospital,Trivandrum-Monday",Trivandrum,"Cure India Clubfoot Clinic                           Room No: 248 Paediatric Orthopedics,  Ortho Op, OP Block Govt. Medical College  Hospital, Trivandrum Pin: 695011",POINT (76.92839462421757 8.52383865837313),ASPC,Active,8.52383865837313,76.92839462421757,"Cure India Clubfoot Clinic                           Room No: 248 Paediatric Orthopedics,  Ortho Op, OP Block Govt. Medical College  Hospital, Trivandrum Pin: 695011"
Kerala,"Medical College Hospital, Trivandrum - Friday",Trivandrum,"Cure India Clubfoot Clinic                           Room No: 248 Paediatric Orthopedics,  Ortho Op, OP Block Govt. Medical College  Hospital, Trivandrum Pin: 695011",POINT (76.92839462421757 8.52383865837313),ASPC,Active,8.52383865837313,76.92839462421757,"Cure India Clubfoot Clinic                           Room No: 248 Paediatric Orthopedics,  Ortho Op, OP Block Govt. Medical College  Hospital, Trivandrum Pin: 695011"
Kerala,"Medical College Hospital,Trivandrum-Thursday",Trivandrum,"Cure India Clubfoot Clinic                           Room No: 248 Paediatric Orthopedics,  Ortho Op, OP Block Govt. Medical College  Hospital, Trivandrum Pin: 695011",POINT (76.92839462421757 8.52383865837313),ASPC,Active,8.52383865837313,76.92839462421757,"Cure India Clubfoot Clinic                           Room No: 248 Paediatric Orthopedics,  Ortho Op, OP Block Govt. Medical College  Hospital, Trivandrum Pin: 695011"
Kerala,"Medical College Hospital, Kottayam - Tuesday",kottayam,"Cure Clubfoot clinic   Govt. Medical College Hospital, Gandhi Nagar Arpookara Kottayam- 606008",POINT (76.52084242471939 9.632754905589715),DPC,Active,9.632754905589715,76.52084242471939,"Cure Clubfoot clinic   Govt. Medical College Hospital, Gandhi Nagar Arpookara Kottayam- 606008"
Kerala,"Medical College Hospital, Calicut - Friday",Kozhikode,"Cure India Clubfoot Clinic                          GMCH kozhikode, Department of Orthopaedic, Kozhikode-673008",POINT (75.83881161458719 11.275496716954898),DPC,Active,11.275496716954898,75.83881161458719,"Cure India Clubfoot Clinic                          GMCH kozhikode, Department of Orthopaedic, Kozhikode-673008"
Kerala,"Medical College Hospital, Alappuzha - Wednesday",Alappuzha,Cure India Cluboot Clinic                                                                                                     T.D Medical College Vandanam NH-66 Alappuzha Dist.688005,POINT (76.34786639777295 9.417261042122943),Volunteer,Active,9.417261042122943,76.34786639777295,Cure India Cluboot Clinic                                                                                                     T.D Medical College Vandanam NH-66 Alappuzha Dist.688005
Kerala,"Medical College Hospital, Alappuzha - Tuesday",Alappuzha,Cure India Cluboot Clinic                                                                                                     T.D Medical College Vandanam NH-66 Alappuzha Dist.688005,POINT (76.34786639777295 9.417261042122943),Volunteer,Active,9.417261042122943,76.34786639777295,Cure India Cluboot Clinic                                                                                                     T.D Medical College Vandanam NH-66 Alappuzha Dist.688005
Kerala,"District Hospital, Kannur- Monday",Kannur,"Cure Clubfoot clinic   DH Kannur, fort road Kannur  Near Contonment Pin: 670017",POINT (75.48731155276732 11.747600239850966),DPC,Active,11.747600239850966,75.48731155276732,"Cure Clubfoot clinic   DH Kannur, fort road Kannur  Near Contonment Pin: 670017"
Kerala,"Medical College Hospital, Thrissur - Wednesday",Thrissur,"Cure Clubfoot Clinic  Govt. medical college Hospital, Mulamkunnathukavu Thrissur-680581",POINT (76.19561605776259 10.614236015794923),DPC,Active,10.614236015794923,76.19561605776259,"Cure Clubfoot Clinic  Govt. medical college Hospital, Mulamkunnathukavu Thrissur-680581"
Kerala,"District Hospital, Thrissur - Thursday",Thrissur,"Cure Clubfoot Clinic   GH Thrissur, St. Thomas College Road Thrissur- 680001",POINT (76.19561605776259 10.614236015794923),DPC,Active,10.614236015794923,76.19561605776259,"Cure Clubfoot Clinic   GH Thrissur, St. Thomas College Road Thrissur- 680001"
Kerala,"Thaluk Hospital, Thrikkarippor - Saturday",Kasargod,"Cure Clubfoot Clinic     TH Kasargode,Thangayam Thaluk Hospital, Thrikaripoor Kasargode- 671121",POINT (74.99134745499539 12.503628035642574),DPC,Active,12.503628035642574,74.99134745499539,"Cure Clubfoot Clinic     TH Kasargode,Thangayam Thaluk Hospital, Thrikaripoor Kasargode- 671121"
Kerala,"Medical College Hospital, Kottayam - Monday",Kottayam,"Cure Clubfoot clinic   Govt. Medical College Hospital, Gandhi Nagar Arpookara Kottayam- 606008",POINT (76.52084242471939 9.632754905589715),DPC,Active,9.632754905589715,76.52084242471939,"Cure Clubfoot clinic   Govt. Medical College Hospital, Gandhi Nagar Arpookara Kottayam- 606008"
Kerala,"Medical College Hospital, Kottayam -Wednesday",Kottayam,"Cure Clubfoot clinic   Govt. Medical College Hospital, Gandhi Nagar Arpookara Kottayam- 606008",POINT (76.52084242471939 9.632754905589715),DPC,Active,9.632754905589715,76.52084242471939,"Cure Clubfoot clinic   Govt. Medical College Hospital, Gandhi Nagar Arpookara Kottayam- 606008"
Kerala,"Medical College Hospital, Thrissur -Saturday",Thrissur,"Cure Clubfoot Clinic  Govt. medical college Hospital, Mulamkunnathukavu Thrissur-680581",POINT (76.19561605776259 10.614236015794923),DPC,Active,10.614236015794923,76.19561605776259,"Cure Clubfoot Clinic  Govt. medical college Hospital, Mulamkunnathukavu Thrissur-680581"
Kerala,"Medical College Hospital, Calicut - Saturday",Kozhikode,"Cure India Clubfoot Clinic                          GMCH kozhikode, Department of Orthopaedic, Kozhikode-673008",POINT (75.83881161458719 11.275496716954898),DPC,Active,11.275496716954898,75.83881161458719,"Cure India Clubfoot Clinic                          GMCH kozhikode, Department of Orthopaedic, Kozhikode-673008"
Kerala,D.H. Idukki,Idukki,"Cure Cluboot Clinic                               Govt.Medical College Idukki, Idukki Colony- 685602",POINT (76.68110167304235 10.819356831915615),DPC,Active,10.819356831915615,76.68110167304235,"Cure Cluboot Clinic                               Govt.Medical College Idukki, Idukki Colony- 685602"
Kerala,W&Ch Palakkad,Palakkad,"Cure Clubfoot Clinic                                                                                                 Women and Child Hospital Near DH, Palakkad Dist- 678013",POINT (76.95288211091521 10.965510051539782),DPC,Active,10.965510051539782,76.95288211091521,"Cure Clubfoot Clinic                                                                                                 Women and Child Hospital Near DH, Palakkad Dist- 678013"
Kerala,Govt. G.H. Kalpetta ,Wayanad,"Cure Clubfoot Clinic                                                                                                       DEIC Kalpetta, Wayanad Pin: 673122",POINT (76.08970822085941 11.634425223097749),DPC,Active,11.634425223097749,76.08970822085941,"Cure Clubfoot Clinic                                                                                                       DEIC Kalpetta, Wayanad Pin: 673122"
Kerala,EMS Hospital Perinthalmanna,Malappuram,"Clubfoot Clinic                                                                                                                       EMS Hospital, Perinthalmanna   Malappuram Dist-  679322",POINT (76.2554543395528 10.977586943485631),DPC,Inactive,10.977586943485631,76.2554543395528,"Clubfoot Clinic                                                                                                                       EMS Hospital, Perinthalmanna   Malappuram Dist-  679322"
Kerala,G.H. Thalasserry,Kannur,"Clubfoot Clinic                                                                                                                    General Hospital, Thalaserry Kannur Dist- 670101",,DPC,Inactive,11.7475648,75.4873129,"NH 66, opposite to Hotel Western, Palissery, Thalassery, Kerala 670101, India"
Madhya Pradesh,"Gandhi Medical College, Bhopal",Bhopal,"Cure Clubfoot Clinic, Department of Orthopaedic, Gandhi Medical College, Bhopal - 462001",,SPC,Active,23.2599254,77.3909592,"Sultania Rd, near Hamidia Hospital, Royal Market, Bhopal, Madhya Pradesh 462001, India"
Madhya Pradesh,"Bundelkhand Medical College, Sagar",Sagar,"Cure Clubfoot Clinic, Deptt. of Orthopaedics, Bundelkhand Medical College Sagar - 470001",,Volunteer,Active,23.818953,78.7548826,"Shivaji Ward, RQ94+MQM, Tili Rd, Vaishali Nagar, Sagar, Madhya Pradesh 470001, India"
Madhya Pradesh,"Mahatma Gandhi Medical College, Indore",Indore,"Cure Clubfoot Clinic, Deptt. of Orthopaedics, M.Y. Hospital Indore, Indore - 452001",,Volunteer,Active,22.7134985,75.88035959999999,"Maharaja Yeshwantrao Hospital Backside Rd, CRP Line, Indore, Madhya Pradesh 452001, India"
Madhya Pradesh,"Shyam Saha Medical College, Rewa",Rewa,"Cure Clubfoot Clinic, Deptt. of Orthopaedics, Shyam Shah Medical College Rewa - 486001",,DPC,Active,24.5317028,81.29971239999999,"G7JX+MVP, Hari Bhushan Nagar, Rewa, Madhya Pradesh 486001, India"
Madhya Pradesh,"Netaji Subhash Chandra Bose Medical College, Jabalpur",Jabalpur,"Cure Clubfoot Clinic, Deptt. of Orthopaedics, Netaji Subhash Chandra Bose Medical College Jabalpur - 482003",,DPC,Active,23.1499818,79.8807326,"Tilwara Rd, Doctors Colony, Medical College Colony, Jabalpur, Madhya Pradesh 482003, India"
Madhya Pradesh,"Gajra Raja Medical College, Gwalior",Gwalior,"Cure Clubfoot Clinic, Deptt. of Orthopaedics, Gajra Raja Medical College Gwalior - 474009",,Volunteer,Active,26.1969138,78.16499379999999,"Gwalior, Madhya Pradesh 474009, India"
Madhya Pradesh,District Hospital Gwalior,Gwalior,"Cure Clubfoot Clinic, Deptt. of Orthopaedics, District Hospital Gwalior - 474011",,Volunteer,Active,26.2235182,78.2228028,"66FF+C43, Mall Rd, Morar, Gwalior, Madhya Pradesh 474006, India"
Madhya Pradesh,"Kushabhau Thakre District Hospital, Rewa",Rewa,"Cure Clubfoot Clinic, Deptt. of Orthopaedics, Kushabhau Thakre District Hospital Rewa - 486001",,DPC,InActive,24.5211073,81.3034622,"G8C3+C9W, Bichhiya, Madhya Pradesh 486001, India"
Madhya Pradesh,District Hospital Sehore,Sehore,"Cure Clubfoot Clinic, Deptt. of Orthopaedics, District Hospital Sehore - 466001",,DPC,Active,23.1985394,77.0822799,"Sewan, River Square, Sindhi Colony, Sehore, Madhya Pradesh 466001, India"
Madhya Pradesh,District Hospital Hoshangabad,Hoshangabad,"Cure Clubfoot Clinic, Deptt. of Orthopaedics, District Hospital Hoshangabad, Narmadapuram - 466001",,Volunteer,Active,22.7575387,77.7186266,"Jagdish Pura, Narmadapuram, Madhya Pradesh 461001, India"
Madhya Pradesh,"AIIMS, Bhopal",Bhopal,"Cure Clubfoot Clinic, Department of Orthopaedic, AIIMS Bhopal, Bhopal - 462026",,SPC,Active,23.2094476,77.45817129999999,"AIIMS Campus Rd, AIIMS Campus, Saket Nagar, Habib Ganj, Bhopal, Madhya Pradesh 462026, India"
Madhya Pradesh,District Hospital Mandla,Mandla,"Cure Clubfoot Clinic, Deptt. of Orthopaedics, District Hospital Mandla - 481661",,DPC,Active,22.5962799,80.37038869999999,"35, District Hospital Sitapur St, Complex, Mandla, Madhya Pradesh 481661, India"
Madhya Pradesh,"Victoria District Hospital, Jabalpur",Jabalpur,"Cure Clubfoot Clinic, Deptt. of Orthopaedics, Govt. Seth Govind Das (Victoria) District Hospital Jabalpur - 482002",,DPC,Active,23.1719084,79.9370435,"Badi Omti, 5WCP+QR7, Ganjipura Rd, Ganjipura, Jabalpur, Madhya Pradesh 482002, India"
Madhya Pradesh,District Hospital Betul,Betul,"Cure Clubfoot Clinic, Deptt. of Orthopaedics, District Hospital Betul - 460001",,Volunteer,Active,21.9027144,77.89882949999999,"Dr. Bhimrao Ambedkar Square, Ganj, Betul, Madhya Pradesh 460001, India"
Madhya Pradesh,District Hospital Seoni,Seoni,"Cure Clubfoot Clinic, Deptt. of Orthopaedics, District Hospital Seoni - 480661",,DPC,inActive,22.0956392,79.551266,"District Hospital, f 8, Barapatthar Rd, Ekta Colony, Barapatthar, Seoni, Madhya Pradesh 480661, India"
Madhya Pradesh,District Hospital Shivpuri,Shivpuri,"Cure Clubfoot Clinic, Deptt. of Orthopaedics, District Hospital Shivpuri - 473551",,Volunteer,Active,25.4248351,77.65125789999999,"CMG2+4PF, Hospital Rd, Govt Hospital Shivpuri, Mahal Colony, Shivpuri, Madhya Pradesh 473551, India"
Madhya Pradesh,"District Hospital, Balaghat",Balaghat,"Cure Clubfoot Clinic, Deptt. of Orthopaedics, District Govt Hospital Balaghat - 481001",,Volunteer,Active,21.812876,80.18382930000001,"Shahid Bhagat Singh hospital, बालाघाट, मध्य प्रदेश 481001, India"
Madhya Pradesh,"District Hosital, Vidisha",Vidisha,"Cure Clubfoot Clinic, Deptt. of Orthopaedics, District Civil Hospital Vidisha - 464001",,DPC,Active,23.5235719,77.81397179999999,"Vidisha, Madhya Pradesh 464001, India"
Madhya Pradesh,"District Hospital, Chattarpur",Chattarpur,"Cure Clubfoot Clinic, Deptt. of Orthopaedics, District Civil Hospital Chhatarpur - 471001",,Volunteer,Active,24.9167821,79.5910058,"Chhatarpur, Madhya Pradesh 471001, India"
Madhya Pradesh,"District Hospital, Ratlam",Ratlam,"Cure Clubfoot Clinic, Deptt. of Orthopaedics, District Civil Hospital Ratlam - 457001",,Volunteer,Active,23.328225,75.03790950000001,"College Road, Sahar Sarai, Laxman Pura, Ratlam, Madhya Pradesh 457001, India"
Madhya Pradesh,"Gandhi Medical College, Bhopal, Fri",Bhopal,"Cure Clubfoot Clinic, Department of Orthopaedic, Gandhi Medical College, Bhopal - 462001",,DPC,Active,23.2599254,77.3909592,"Sultania Rd, near Hamidia Hospital, Royal Market, Bhopal, Madhya Pradesh 462001, India"
Madhya Pradesh,"Netaji Subhash Chandra Bose Medical College, Jabalpur, Wed",Jabalpur,"Cure Clubfoot Clinic, Deptt. of Orthopaedics, Netaji Subhash Chandra Bose Medical College Jabalpur - 482003",,DPC,Active,23.1499818,79.8807326,"Tilwara Rd, Doctors Colony, Medical College Colony, Jabalpur, Madhya Pradesh 482003, India"
Madhya Pradesh,"Shyam Saha Medical College, Rewa, Wed",Rewa,"Cure Clubfoot Clinic, Deptt. of Orthopaedics, Shyam Shah Medical College Rewa - 486001",,DPC,Active,24.5317028,81.29971239999999,"G7JX+MVP, Hari Bhushan Nagar, Rewa, Madhya Pradesh 486001, India"
Madhya Pradesh,"Mahatma Gandhi Medical College, Indore, Sat",Indore,"Cure Clubfoot Clinic, Deptt. of Orthopaedics, M.Y. Hospital Indore - 452001",,Volunteer,Active,22.7134985,75.88035959999999,"Maharaja Yeshwantrao Hospital Backside Rd, CRP Line, Indore, Madhya Pradesh 452001, India"
Madhya Pradesh,District hospital Shahdol,Shahdol,"Cure Clubfoot Clinic, Deptt. of Orthopaedics, District Hospital Shahdol - 484001",,Volunteer,Active,23.2832927,81.295925,"77MW+897 Shailendra, mahra, Madhya Pradesh 484001, India"
Madhya Pradesh,Birsa Munda Medical College Shahdol,Shahdol,"Cure Clubfoot Clinic, Department of Orthopaedic, Govt. Birsa Munda Medical College, Shahdol - 484001",,Volunteer,Active,23.3094584,81.3964632,"895W+QH, Jamua, Madhya Pradesh 484001, India"
Maharashtra,B. J. Wadia Hospital,Mumbai,,,,Inactive,19.0759837,72.8776559,"Mumbai, Maharashtra, India"
Maharashtra,L. T. Hospital Sion,Mumbai,"L.T. Hospital Sion,New Building ,Near Gate no-7,OPD no-14",,SPC,Active,19.1792786,72.9668466,"Gate Number 7 Rd, Anand Nagar, Mulund East, Mumbai, Maharashtra 400081, India"
Maharashtra,"Bharati hospital, Pune",Pune,"Bharati Hospital and Research Center Pune ,Ortho OPD No-1",,ASS SPC,Active,18.518579,73.85790879999999,"GV95+C5M, Satara Rd, Budhwar Peth, Pune, Maharashtra 411043, India"
Maharashtra,"SKNMC Hopsital, pune",Pune,"Smt. Kashibai Navale Medical College and General Hospital(Ortho OPD),OPD No-27",,ASS SPC,Active,18.4563779,73.8239341,"S.No, 49/1, Mumbai Pune Bypass Rd Flyover, Narhe, Pune, Maharashtra 411041, India"
Maharashtra,"IGM, Bhiwandi, Thane",Thane,"IGM Bhiwandi,Ortho OPD No-11",,ASS SPC,Active,19.299207,73.0671447,"Maruti Mandir Rd, near Panchayat Samiti, Kacheri Pada, Gulzar Nagar, Bhiwandi, Maharashtra 421302, India"
Maharashtra,"OH, Parbhani",Parbhani,"Orthopedic Hospital Parbhani,OPD NO-8",,DPC,Active,19.2649749,76.7704321,"Shop No 4, near RR Tower, New Mondha, Parbhani, Maharashtra 431401, India"
Maharashtra,"Aundh Civil Hospital, Pune",Pune,"District Hospital Aundh,Ortho Opd no-6",,ASS SPC,Active,18.466624,73.8623635,"NO.6, RH/6, Upper Indira Nagar, Bibwewadi, Pune, Maharashtra 411043, India"
Maharashtra,"Civil hospital, Satara",Satara,,,DPC,Inactive,17.6804639,74.018261,"Satara, Maharashtra, India"
Maharashtra,"Civil Hopspital, Osmanabad",Osmanabad,"Osmanabad Civil Hospital,DEIC",,DPC,Active,18.1819554,76.0399513,"52JQ+QXP, Ganesh Ln, Nehru Chowk, Dharashiv (Osmanabad), Maharashtra 413501, India"
Maharashtra,"Civil Hospital, Bhandara",Bhandara,"Civil Hospital Bhandara,DEIC",,DPC,Active,21.160973,79.6592329,"Civil Hospital Rd, Santaji Nagar, Bhandara, Maharashtra 441904, India"
Maharashtra,"Civil Hospital, Nasik",Nasik,"Civil Hospital NasikOPD No-2,Operation Theater",,DPC,Active,19.9967871,73.7783027,"Trambakeshwar Rd, Police Staff Colony, Nashik, Maharashtra 422002, India"
Maharashtra,B. J. Wadia Hospital (TH),Mumbai,,,,Inactive,19.0759837,72.8776559,"Mumbai, Maharashtra, India"
Maharashtra,GMC Nanded (Friday),Nanded,"GMC Hospital Vishnu puri,OPD NO-115 &116",,DPC,Active,19.1097823,77.28936060000001,"Vishnupuri, Nanded, Maharashtra, India"
Maharashtra,"LMH, Nagpur",Nagpur,"Lata Mangeshkar Hospital,Hingna,OPD No-8",,DPC,Active,21.101809,79.0029406,"Hingna Rd, Digdoh Hills, Police Nagar, Nagpur, Maharashtra 440019, India"
Maharashtra,GMC Nanded (Wednesday),Nanded,"GMC Hospital Vishnu puri,OPD NO-115 &116",,DPC,Active,19.1097823,77.28936060000001,"Vishnupuri, Nanded, Maharashtra, India"
Maharashtra,GMC Pune(sasson),Pune,"Sassoon Hospital(Ortho Department ),OPD No-35",,ASS SPC,Active,18.5258008,73.8706347,"Sassoon Hospital, Agarkar Nagar, Pune, Maharashtra 411001, India"
Maharashtra,GMC Kolhapur,Kolhapur,"CPR Hospital Kolhapur,Orthopedic OPD No-104",,DPC,Active,16.6715866,74.2346105,"Bhausinghaji Road, Dasara Chowk, Kolhapur, Maharashtra 416003, India"
Maharashtra,GMC Dhule,Dhule,"Shree Bhausaheb Hire Govt Medical College, Orthopadic OPD No-32",,DPC,Active,20.8647672,74.7633728,"bypass, Chakkarbardi campus, Mumbai - Agra Rd, opposite Residency park hotel, Sakri, Surat, Dhule, Maharashtra 424002, India"
Maharashtra,JJ Hospital,Mumbai,"J. J. Hospital Mumbai,OPD No-3,Near Gate no -6",,SPC,Active,19.1232793,72.8902162,"Gate No. 6, Vidya Milind Nagar, Budhia Jadhav Wadi, Marol, Powai, Mumbai, Maharashtra 400072, India"
Maharashtra,"Civil Hospital, Sangli",Sangli,"P.V.P Civil Hospital Sangli,OPD No-20,",,DPC,Active,16.8525548,74.5747501,"VH3F+2WC, South Shivaji Nagar, Nishant Colony, Sangli, Maharashtra 416416, India"
Maharashtra,GMC Miraj,Sangli,"Goverment Medical college and Hospital ,OPD No-14,",,DPC,Active,16.8523973,74.5814773,"Sangli, Maharashtra, India"
Maharashtra,DEIC Thane,Thane,"Thane Civil Hospital,Ortho OPD No-9",,DPC,Active,19.1991565,72.97746599999999,"Civil Hospital, Thane West, Thane, Maharashtra 400601, India"
Maharashtra,GMC Gondia,Gondia,GMC Gondia OPD No-107,,DPC,Active,21.4576356,80.1955268,"Nehru putla Statue, Sindhi Colony, Gondia, Maharashtra 441601, India"
Maharashtra,GMC Solapur,Solapur,GMC Solapur OPD No-29,,DPC,Active,17.6599188,75.9063906,"Solapur, Maharashtra, India"
Maharashtra,GMC Yavatmal,Yavatmal,"GMC Yavatmal, OPD No-44",,DPC,Active,20.3962951,78.1188432,"Bangar Nagar, Yavatmal, Maharashtra 445001, India"
Maharashtra,"Civil Hospital, Wardha",Wardha,"Civil Hospital Wardha, OPD No-18",,DPC,Active,20.7378298,78.60316360000002,"PJP3+W9J, Mahadevpura, Wardha, Maharashtra 442001, India"
Maharashtra,"Civil Hospital, Amravati",Amravati,"Civil Hospital Amravati, OPD No-10",,DPC,Active,20.9091667,77.7677733,"10, MIDC Rd, New Colony, Dastur Nagar, Amravati, Maharashtra 444605, India"
Maharashtra,"Civil Hospital, Sindhudurg",Sindhudurg,"Civil Hospital Sindhudurg, Orhto OPD",,DPC,Active,16.1170677,73.6904432,"Civil Hospital Rd, Police Line, Oros, Maharashtra 416534, India"
Maharashtra,GMC Chandrapur,Chandrapur,"GMC Chandrapur,Ortho OPD",,DPC,Active,19.9642185,79.2916094,"X77R+MJQ, Ramnagar Rd, near T B Hospital, Civil Lines, Chandrapur, Maharashtra 442402, India"
Maharashtra,GMC Latur,Latur,"GMC Latur,OPD No--7A",,DPC,Active,18.3944412,76.5780326,"Mataji Nagar, Moti Nagar, Latur, Maharashtra 413512, India"
Maharashtra,"Civil Hospital, Washim",Washim,"Civil Hospital Washim,Ortho OPD No-19",,DPC,Active,20.1217156,77.1308134,"44CJ+M8P, Akola Naka, near Municipal Council, वाशीम, महाराष्ट्र 444505, India"
Maharashtra,"Civil Hospital, Jalna",Jalna,Civil Hospital Jalna DEIC,,DPC,Active,19.8323008,75.8744876,"Maharashtra Jeevan Pradhikaran, Jalna, Samarth Nagar, Jalna, Maharashtra 431213, India"
Maharashtra,GMC Akola,Akola,"Goverment Medical College and Hospital,OPD NO-114",,DPC,Active,20.7002159,77.0081678,"Akola, Maharashtra, India"
Maharashtra,VVCMC Nallasopara,Palghar,,,ASS SPC,Inactive,19.6967136,72.769885,"Palghar, Maharashtra 401404, India"
Maharashtra,SGGSM Nanded,Nanded,"Gurugovind  Singh Civil Hospital,Orthopedic OPD-15",,DPC,Active,19.1654466,77.3054021,"Guru Gobind Singh Ji Rd, Nanded, Maharashtra, India"
Maharashtra,NH SRCC,Mumbai,"NH SRCC Hajiali,Cluster No-2",,ASS SPC,Active,18.9789046,72.81221839999999,"Nh Srcc Children's Hospital, Mumbai, Maharashtra, India"
Maharashtra,"Shatabdi Hospital, Govandi",Mumbai,Shatabdi Hospital Govandi ortho opd no-20Govandi east,,DPC,Active,19.0494288,72.9110839,"Centenary Building, WTP Marg, near Pepsi Company, Deonar, Govandi East, Mumbai, Maharashtra 400088, India"
Maharashtra,PDMC amravati,Amravati,PDMMC Hospital Ortho OPD No-5,,DPC,Active,20.944872,77.7728837,"Panchvati Square, Morshi Rd, Kanta Nagar, Amravati, Maharashtra 444603, India"
Maharashtra,"DM Petit Hospital, Vasai",Palghar,"VVCMC D.M Petit Hospital Orthopadic OPD,Vasai West..",,ASS SPC,Active,19.3426258,72.8051642,"zanda bazar, Parnaka, Koliwada, Vasai West, Vasai-Virar, Maharashtra 401201, India"
Maharashtra,"Civil Hospital, Ratnagiri",Ratnagiri,"Civil Hospital Ratnagiri,Orthopadic OPD",,DPC,Active,16.9888564,73.2995763,"X7QX+GRW, behind Civil Hospital, Rajiwada, Ratnagiri, Maharashtra 415612, India"
Maharashtra,"Civil Hospital, Ahmednagar",Ahmadnagar,Civil Hospital Ahmadnagar Orhtopadic OPD No-6,,DPC,Active,19.1084298,74.7353627,"4P5P+94H, Tarakpur Rd, opp. Sarda College, Patrakarchowk, Ahilya Nagar, Maharashtra 414001, India"
Maharashtra,"Civil Hospital, Hingoli",Hingoli,Civil Hospital Hingoli Orthopedic OPD-3,,DPC,Active,19.7221378,77.1551609,"P5C4+V33, Milind Colony, Shree Nagar, Hingoli, Maharashtra 431513, India"
Maharashtra,GMC Jalgaon,Jalgaon,"Goverment Medical College,Orthopadic OPD No-115",,DPC,Active,21.0076578,75.5626039,"Jalgaon, Maharashtra, India"
Maharashtra,GMC Sambhajinagar,Sambhaji Nagar,"Government Medical College, Chhatrapati Sambhajinagar OPD No-117",,DPC,Active,19.8885116,75.3181072,"University Rd, Jubilee Park, Chhatrapati Sambhaji Nagar, Maharashtra 431004, India"
Maharashtra,"Civil Hospital, Raigad",Raigad,"Raigad Civil Hospital Alibag,DEIC",,DPC,Active,18.6408572,72.8717633,"Civil Hospital, Limaye Wadi, Alibag, Maharashtra 402201, India"
Maharashtra,"Sub-District Hospital, Panvel",Raigad,"Sub District Hospital, Panvel,Ortho OPD - 13",,DPC,Active,18.9905703,73.1080759,"Swami Nityanand Rd, Manek Nagar, Old Panvel, Panvel, Navi Mumbai, Maharashtra 410206, India"
Maharashtra,"YCM Hospital, Pune",Pune,"YCM Hospital Pimpri Chinchwad, Ortho OPD No-11",,ASS SPC,Active,18.6218194,73.8210282,"YCM Hospital Rd, Sant Tukaram Nagar, Pimpri Colony, Pune, Pimpri-Chinchwad, Maharashtra 411018, India"
Maharashtra,"Civil Hospital, Chikalthana",Sambhaji Nagar,District CivilHospital Chikalthana OPD no. 4 ,,DPC,Active,19.8917678,75.3281863,"Buttiline Area, Vip Road, Amkhas, V8RH+P73, near Collector Office, Rauf Colony, Buddi lane, Naralibag, Chhatrapati Sambhaji Nagar, Maharashtra 431001, India"
Maharashtra,"Civil Hospital, Beed",Beed,"Civil Hospital Beed,Orthopadic OPD ",,DPC,Active,18.9874158,75.7543621,"Civil Hospital Rd, Beed, Maharashtra 431122, India"
Maharashtra,"GMC Ambejogai, Beed",Beed,GMC Ambejogai Orthopadic OPD ,,DPC,Active,18.7295703,76.3696492,"Medical campus, Gnm nursing hostel, Ambajogai, Maharashtra 431517, India"
Maharashtra,"Civil Hospital, Buldhana",Buldhana,"District Civil Hospital Buldhana,  Orthopadic OPD",,DPC,Active,20.5327971,76.1866323,"G5MP+4JQ, Milind Nagar, Buldhana, Maharashtra 443001, India"
Maharashtra,GMC Solapur Friday,Solapur,GMC Solapur OPD No-29,,DPC,Active,17.6599188,75.9063906,"Solapur, Maharashtra, India"
Maharashtra,"Civil Hospital, Nasik Thursday",Nasil,"Civil Hospital NasikOPD No-2,Operation Theater",,DPC,Active,19.9967871,73.7783027,"Trambakeshwar Rd, Police Staff Colony, Nashik, Maharashtra 422002, India"
Maharashtra,"GMC Ambejogai, Beed, TH",Beed,GMC Ambejogai Orthopadic OPD Thursday,,DPC,Active,18.7295703,76.3696492,"Medical campus, Gnm nursing hostel, Ambajogai, Maharashtra 431517, India"
Manipur,"Jawaharlal Nehru Institute of Medical Sciences, Imphal",Imphal east,"Jnims orthopedic department,Porompat, Imphal east, Manipur",,SPC,Active,24.8100744,93.9611346,"Porompat, Khongnang Makhong, Imphal, Manipur 795004, India"
Meghalaya,"Civil hospital - Shillong,",east khasi hills district,"civil hospital, shillong",,Spc,active,25.5677394,91.88108129999999,"Laban, HV9J+3CW, Lachumiere, Shillong, Meghalaya 793001, India"
Nagaland,Naga hospital Authority Kohima,Kohima,,,SPC,Active,25.6751129,94.10859980000001,"Kohima, Nagaland, India"
Odisha,"SCBMCH, CUTTACK",Cuttack,"Cure Clubfoot,Orthopedic Department,SCB MCH,Cuttack",,DPC,Active,20.4735805,85.890658,"FVFR+C7M, Behera Colony, Professors Colony, Cuttack, Odisha 753007, India"
Odisha,"VSS, BURLA",Sambalpur,,,Paid Volunteer,Active,21.4668716,83.9811665,"Sambalpur, Odisha, India"
Odisha,"MKCGH, BEHRAMPUR",Berhampur,,,DPC,Active,19.3149618,84.7940911,"Brahmapur, Odisha, India"
Odisha,"DHH, KORAPUT",Koraput,,,DPC,Active,18.813487,82.71233269999999,"Koraput, Odisha, India"
Odisha,"RGH, ROURKELA",Sundergarh,,,DPC,Active,22.120021,84.037224,"Sundargarh, Odisha, India"
Odisha,"SVNIRTAR, Cuttack",Cuttack,,,DPC,Active,20.462521,85.8829895,"Cuttack, Odisha, India"
Odisha,"SISHU BHAWAN, Cuttack",Cuttack,"DEIC, Sishu Bhaban, Cuttack",,SPC,Inactive,20.4652592,85.8575783,"Ring Rd, Chandini Chowk, Cuttack, Odisha 753002, India"
Odisha,CAPITAL HOSPITAL BHUBANESWAR,Khorda,"DEIC, Capital Hospital ",,Paid Volunteer,Active ,20.2600254,85.8232656,"Unit 6, Ganga Nagar, Bhubaneswar, Odisha 751025, India"
Odisha,"SCBMCH, CUTTACK, FRIDAY",Cuttack,"Cure Clubfoot,Orthopedic Department,SCB MCH,Cuttack",,DPC,Active,20.4735805,85.890658,"FVFR+C7M, Behera Colony, Professors Colony, Cuttack, Odisha 753007, India"
Odisha,"SISHU BHAWAN, Cuttack, THURSDAY",Cuttack,"DEIC, Sishu Bhaban, Cuttack",,SPC,Active,20.4652592,85.8575783,"Ring Rd, Chandini Chowk, Cuttack, Odisha 753002, India"
Odisha,"MKCGH, BEHRAMPUR, THURSDAY",Berhampur,,,DPC,Active,19.3149618,84.7940911,"Brahmapur, Odisha, India"
Odisha,"VSS, BURLA, FRIDAY",Sambalpur,,,Paid Volunteer,Active,21.4668716,83.9811665,"Sambalpur, Odisha, India"
Odisha,"DHH KORAPUT, FRIDAY",Koraput ,,,DPC,Active,18.813487,82.71233269999999,"Koraput, Odisha, India"
Odisha,"SVNIRTAR, Cuttack, TUESDAY",Cuttack,,,DPC,Active,20.462521,85.8829895,"Cuttack, Odisha, India"
Odisha,"SVNIRTAR, Cuttack, WEDNESDAY",Cuttack,,,DPC,Active,20.462521,85.8829895,"Cuttack, Odisha, India"
Odisha,"Pandit Raghunath Murmu MCH, Baripada",Baripada,,,Volunteer,Active,21.9319838,86.7465928,"Baripada, Odisha, India"
Odisha,"Fakir Mohan MCH, Balesore",Balesore,,,Volunteer,Active,21.4933578,86.9134794,"Balasore, Odisha, India"
Odisha,"District Headquarter Hospital, Angul",Angul,,,Volunteer,Active,20.8404122,85.1028982,"Angul, Odisha, India"
Rajasthan,Sawai Man Singh Medical College (SMS) in Jaipur,JAIPUR,"SMS HOSPITAL, JAIPUR, RAJASTHAN",,DPC,ACTIVE,26.906234,75.8163148,"Jawahar Lal Nehru Marg, Ashok Nagar, Jaipur, Rajasthan 302001, India"
Rajasthan,Jawarharlal Nehru (JLN) Medical College in Ajmer,AJMER,"JLN HOSPITAL, AJMER",,DPC,ACTIVE,26.4680696,74.63537269999999,"Kala Bagh, Ajmer, Rajasthan 305001, India"
Rajasthan,Sardar Patel Medical College in Bikaner,BIKANER,"SARDAR PATEL MEDICAL COLLEGE, BIKANER",,DPC,ACTIVE,28.0063889,73.3305142,"SP Medical College Rd, PBM Hospital, Sardar Patel Colony, Bikaner, Rajasthan 334001, India"
Rajasthan,Government Medical College in Kota,KOTA,"MAHARAO BHIM SINGH HOSPITAL, KOTA",,DPC,ACTIVE,25.1983752,75.85708129999999,"5VX4+9R4, Nayapura, Kota, Rajasthan 324001, India"
Rajasthan,Sampurnanand Medical College (SNMC) in Jodhpur,JODHPUR,SN MEDICALCOLLEGE. JODHPUR,,ASPC,ACTIVE,26.2697861,73.0077435,"Residency Rd, Sector-D, Shastri Nagar, Jodhpur, Rajasthan 342003, India"
Rajasthan,"Sawai Man Singh Medical College (SMS) in Jaipur, Monday",JAIPUR,"SMS HOSPITAL, JAIPUR, RAJASTHAN",,DPC,ACTIVE,26.906234,75.8163148,"Jawahar Lal Nehru Marg, Ashok Nagar, Jaipur, Rajasthan 302001, India"
Rajasthan,"Sawai Man Singh Medical College (SMS) in Jaipur, Tuesday",JAIPUR,"SMS HOSPITAL, JAIPUR, RAJASTHAN",,DPC,ACTIVE,26.906234,75.8163148,"Jawahar Lal Nehru Marg, Ashok Nagar, Jaipur, Rajasthan 302001, India"
Rajasthan,"Sawai Man Singh Medical College (SMS) in Jaipur, Thursday",JAIPUR,"SMS HOSPITAL, JAIPUR, RAJASTHAN",,DPC,ACTIVE,26.906234,75.8163148,"Jawahar Lal Nehru Marg, Ashok Nagar, Jaipur, Rajasthan 302001, India"
Rajasthan,"Sawai Man Singh Medical College (SMS) in Jaipur, Saturday",JAIPUR,"SMS HOSPITAL, JAIPUR, RAJASTHAN",,DPC,ACTIVE,26.906234,75.8163148,"Jawahar Lal Nehru Marg, Ashok Nagar, Jaipur, Rajasthan 302001, India"
Rajasthan,"All India Institute of Medical Sciences, Jodhpur",JODHPUR,"All India Institute of Medical Sciences, Jodhpur",,ASPC,ACTIVE,26.2389604,73.00740859999999,"Marudhar Industrial Area, 2nd Phase, M.I.A. 1st Phase, Basni, Basni, Jodhpur, Rajasthan 342005, India"
Sikkim,"Sir Thodup Namgyal Hospital, Gangtok",Gangtok,"STNM,Sochakgang, Gangtok",,DPC,Active,27.3450607,88.6039263,"Sochakhana Sichey, Stnn Hospital, near Stnm Hospital, Sungava, Gangtok, Sikkim 737101, India"
Tamilnadu,Institute of child health and hospital for children,Chennai,"Cure India, Department of Orthopedics,  Institute of Child Health and Hospital for children, Egmore, Chennai - 600008",,SPC & DPC,Active,13.0730141,80.2598357,"INSTITUTE OF CHILD HEALTH AND HOSPITAL FOR CHILDREN, Egmore, Chennai, Tamil Nadu 600008"
Tamilnadu,Coimbatore Government Medical college Hospital,Coimbatore,"Department of Orthopedics,  1619 A, Trichy Rd, Gopalapuram, Coimbatore, Tamil Nadu 641018",,DPC,Active,10.9955949,76.97028999999999,"XXWC+63R, Gopalapuram, Coimbatore, Tamil Nadu 641018, India"
Tamilnadu,"Government Rajaji Medical college Hospital, Madurai",Madurai,"Department of Orthopedics,  GH Post Office, Poonamallee High Road, 3, Grand Southern Trunk Rd, near Park Town, Near Chennai Central, Park Town, Chennai, Tamil Nadu 600003",,DPC,Active,9.9252007,78.1197754,"Madurai, Tamil Nadu, India"
Tamilnadu,Thanjavur Government Medical college Hospital,Thanjvaur,"Department of Orthopedics,  Medical College Rd, Thanjavur, Tamil Nadu 613004",,DPC,Active,10.7583276,79.100533,"Medical College Rd, Thanjavur, Tamil Nadu 613004, India"
Tamilnadu,Vellore Government Medical college Hospital,Vellore,"Department of Orthopedics, R4VP+QQP, Arani Road, Opposite Staff Quarters, Adukkamparai, Vellore, Tamil Nadu 632011",,DPC,Active,12.8442579,79.1350595,"Arni Rd, Adukkamparai, Tamil Nadu, India"
Tamilnadu,Dharmapuri Government Medical college Hospital,Dharmapuri,"Department of Orthopedics, 45F4+4V9, Indhira Nagar, Dharmapuri, Tamil Nadu 636701",,DPC,Active,12.1227875,78.1572344,"45F4+4V9, Indhira Nagar, Dharmapuri, Tamil Nadu 636701, India"
Tamilnadu,Tirunelveli Government Medical college Hospital,Tirunelveli,"Department of Orthopedics, 3, High Ground Rd, Palayamkottai, Tirunelveli, Tamil Nadu 627011",,DPC,Active,8.725581,77.7420362,"3, High Ground Rd, Palayamkottai, Tirunelveli, Tamil Nadu 627011, India"
Tamilnadu,Cuddalore Government Medical college Hospital,Cuddalore,"Department of Orthopedics, Cuddlore GH
Hospital road,
Manjakuppam.
Cuddalore.TN -607001
",,DPC,Active,11.7572472,79.7584837,"Hospital Rd, Manjakuppam, Cuddalore, Tamil Nadu, India"
Tamilnadu,Puducherry Medical college Hospital,Puducherry,"Department of Orthopedics, Victor Simonel St, White Town, Puducherry, 605001",,DPC,Active,11.9311409,79.8330177,"WRJM+F62, Victor Simonel St, White Town, Puducherry, 605001, India"
Tamilnadu,Villupuram Government Medical college Hospital,Villupuram," Department of Orthopedics, XGV8+6XV, Medical College Rd, Mundiyampakkam, Tamil Nadu 605601",,DPC,Active,11.9935969,79.5167794,"Medical College Rd, Mundiyampakkam, Tamil Nadu 605601, India"
Telangana,"Gandhi Medical College, Hyderabad",Hyderabad,"Gandhi Hospital,Room no:38,OPD Block  Orthopeadics,Musheerabad,Secunderabad, Telangana-500003",,ASPC,Active,17.4233214,78.5040659,"Bhoiguda Road, M.I.G.H colony, Musheerabad, Walker Town, Padmarao Nagar, Secunderabad, Telangana 500025, India"
Telangana,"Osmania Medical College, Hyderabad",Hyderabad,"Osmania General Hospital,Ortho Department,Room No124,Afzal gung",,ASPC,Active,17.3742889,78.4745851,"15-5-104, Begum Bazar, Afzal Gunj, Hyderabad, Telangana 500012, India"
Telangana,GGH - Nizamabad,Nizamabad,"Cure India,Government General Hospital,Nizamabad,OPD Block,Room No:370&371",,DPC,Active,18.6756649,78.0990829,"beside Bus stand, Khaleelwadi, Nizamabad, Telangana 503001, India"
Telangana,MGMH - KMC Warangal,Warangal,"Cure India,Mahathma gandhi Memorial Hospital-MGMH,ODP Block,Orthpeadics,Room No12&13,Warangal-506001",,DPC,Active,17.9692624,79.59263039999999,"Warangal, Telangana, India"
Telangana,RIMS - Adilabad,Adilabad,"Cure I ndia,Rajeev Gandhi Institute of Medical Science-RIMS,OPD Block,Orthopeadics,Room No:12&13,Adilabad-504001",,DPC,Active,19.6639044,78.5258381,"MG7G+HFV, chaitanyapuri, Adilabad, Telangana 504001, India"
Telangana,MGMH - KMC Warangal Saturday,Warangal,"Cure India,Mahathma Gandhi Memorial Hospital-MGMH,OPD Block,Orthopeadics,Room no:12&13,Warangal-506001",,Dpc,Active,17.9692624,79.59263039999999,"Warangal, Telangana, India"
Tripura,"Govt. Medical College and GBPH, Agartala",West Tripura,"AGMC&GBPH, orthopedic ward, Kunjaban, pin-799006",,SPC,Active,23.8604332,91.2927536,"PO, Kunjaban, Agartala, Tripura 799006, India"
Uttar Pradesh,"MLBMC, Jhansi",Jhansi,"MLBMC, Jhansi",,DPC,Active,25.4600347,78.61470489999999,"Kanpur Road, Bundelkhand University, Jhansi, Uttar Pradesh 284001, India"
Uttar Pradesh,"JLNMC, Aligarh",Aligarh,"Jawahar Lal Nehru Medical College, Aligarh",,DPC,Active,27.918604,78.0857405,"Medical Rd, AMU Campus, Aligarh, Dhaurra Mafi, Uttar Pradesh 202002, India"
Uttar Pradesh,"SNMC, Agra, Thursday",Agra,"Rajamandi, Sarojini Naydu Medical College, Agra",,DPC,Active,27.1879731,78.0092051,"Central Library, Moti Katra, Mantola, Agra, Uttar Pradesh 282003, India"
Uttar Pradesh,"KGMU, Lucknow Monday",Lucknow,"4th floor, New OPD, Shahmina road,  KGMU",,ASPC,Active,26.8655902,80.9125045,"Shah Mina Rd, Chowk, Lucknow, Uttar Pradesh 226003, India"
Uttar Pradesh,"GSVM, Kanpur",Kanpur,"GSVM, Kanpur",,DPC,Active,26.4820825,80.30807899999999,"GSVM मेडिकल कॉलेज, Sarvodaya Nagar, Kanpur, Uttar Pradesh 208002, India"
Uttar Pradesh,"BRD, Gorakhpur",Gorakhpur,"BRD Medical College, Gorakhpur",,DPC,Active,26.813584,83.3999654,"Medical College Road, Gorakhpur, Uttar Pradesh 273013, India"
Uttar Pradesh,"MLNMC, Allahabad",Allahabad,Motilal Nehru Medical College,,DPC,Inactive,25.4503137,81.8518907,"FV22+4QC, George Town, Prayagraj, Uttar Pradesh 211002, India"
Uttar Pradesh,"LLRM, Meerut",Meerut,"LLRM, Meerut",,DPC,Active,28.9600155,77.7502617,"Jai Bhim Nagar, Meerut, Uttar Pradesh 250004, India"
Uttar Pradesh,"BHU, Varanasi, Tuesday",Varanasi,"BHU, Varanasi",,DPC,Active,25.2685304,82.9904737,"Ajagara, Varanasi, Uttar Pradesh 221005, India"
Uttar Pradesh,BHU Varanasi Saturday,Varanasi,"BHU, Varanasi",,DPC,Active,25.2685304,82.9904737,"Ajagara, Varanasi, Uttar Pradesh 221005, India"
Uttar Pradesh,"UPRIMS, Saifai",Etawah,"Uttar Pradesh University of Medical Science, Saifai Etawah",,DPC,Active,26.9618229,78.961478,"Saifai, Lachwai, Uttar Pradesh 206130, India"
Uttar Pradesh,"KGMU, Lucknow Wednesday",Lucknow,"4th Floor, Shahmina road, new OPD,KGMU",,ASPC,Active,26.8655902,80.9125045,"Shah Mina Rd, Chowk, Lucknow, Uttar Pradesh 226003, India"
Uttar Pradesh,District joint hospital Sobhadra ,Sobhadra,"District Joint Hospital, Sonbhadra",,DPC,Inactive,24.646173,83.05861399999999,"Bhandar Khurd, Uttar Pradesh 231216, India"
Uttar Pradesh,AIIMS Hospital Raebarily ,Raebareli,"AIIMS, Dariyapur, Munshiganj, Raebareli",,DPC,Active,26.1768065,81.2508335,"Dariyapur Rd, Dariyapur, Uttar Pradesh 229405, India"
Uttar Pradesh,MRA MC Ambedkar Nagar,Ambedkar Nagar,MRA MC Ambedkar Nagar,,DPC,Inactive,26.5080015,82.6127303,"SH 5, Mamrejpur, Ismail Pur, Uttar Pradesh 224190, India"
Uttar Pradesh,RDAS MC Ayodhya,Ayodhya,"Rajashree dashrath Autonomous State medical College, Darshan Nagar, Ayodhya",,DPC,Active,26.7434138,82.1557748,"P5V4+986, Unnamed Road, Hansa Pur, Uttar Pradesh 224133, India"
Uttar Pradesh,"District Hospital, Jaunpur",Jaunpur,NIL,,DPC,Inactive,25.7464145,82.68370329999999,"Jaunpur, Uttar Pradesh, India"
Uttar Pradesh,District Hospital Mirzapur,Mirzapur,"Maa  Vindhyavasinini Swashashi Medical College, Mirzapur",,DPC,Active,25.1778825,82.6066412,"5JH4+5M2, MVASMC, Mirzapur, Uttar Pradesh 231501, India"
Uttar Pradesh,Maharshi Vashishtha  M.C Basti,Basti,"Maharishi Vashishth Medical College, Basti",,DPC,Active,26.7657167,82.8036703,"QR83+7FM, Rampur, Uttar Pradesh 272124, India"
Uttar Pradesh,Govt. MC Chakrapanpur Azamgarh,Azamgarh,"Govt Medical College, Chakrapanpur, Azamgarh",,DPC,Active,25.8971422,83.20508629999999,"Chakrapanpur, Uttar Pradesh 276127, India"
Uttar Pradesh,District Hospital Ballia,Balia,"District Hospital, Balia",,DPC,Inactive,25.7516784,84.1480268,"District hospital campus, Q43X+4XF, Kasim Bazar, Bahadurpur, Ballia, Uttar Pradesh 277001, India"
Uttar Pradesh,Medical College Banda,Banda,"Rani Durgavati Medical College, Banda",,DPC,Active,25.4378878,80.353843,"Naraini Road, Banda, Tindwara, Uttar Pradesh 210001, India"
Uttar Pradesh,"SNMC, Agra, Monday",Agra,"Rajmandi, Sarojini Naydu, Medical College, Agra",,DPC,Active,27.1879731,78.0092051,"Central Library, Moti Katra, Mantola, Agra, Uttar Pradesh 282003, India"
Uttar Pradesh,BHU Varanasi Monday ,Varanasi,"BHU, Varanasi",,DPC,Active,25.2685304,82.9904737,"Ajagara, Varanasi, Uttar Pradesh 221005, India"
Uttar Pradesh,BHU Varanasi Wednesday ,Varanasi,"BHU, Varanasi",,DPC,Active,25.2685304,82.9904737,"Ajagara, Varanasi, Uttar Pradesh 221005, India"
Uttarakhand,"STMC, Haldwani Friday",Haldwani,Dr. Susheela Tiwari Government Hospital,,,Active,29.2042321,79.5161205,"Rampur Rd, Haldwani, Uttarakhand 263129, India"
Uttarakhand,"DEIC, Base Hospital, Almora",Almora,Goverdhan Tiwari Government Base Hospital,,Dpc,Active,29.593066,79.63810889999999,"HJVQ+66H, Satyadi, Almora, Uttarakhand 263601, India"
Uttarakhand,"DEIC, Base Hospital, Haldwani",Haldwani,Soban Singh Jeena Base Hospital Haldwani,,Dpc,Active,29.2158625,79.52907069999999,"Bareilly - Nainital Rd, near bus station, Banbhoolpura, Haldwani, Uttarakhand 263139, India"
Uttarakhand,"Doon Hospital, Dehradun",Dehradun,Government Doon Hospital & College,,Spc,Active,30.3196299,78.0421506,"829R+VV2, New Rd, Race Course, Dehradun, Uttarakhand 248001, India"
Uttarakhand,AIIMS Rishikesh,Dehradun,All India Institute of Medical Sciences,,SPC,Active,30.3164945,78.03219179999999,"Dehradun, Uttarakhand, India"
Uttarakhand,Ramakrishna Mission Hospital (Friday),Haridwar,,,Dpc,Active,29.9456906,78.16424780000001,"Haridwar, Uttarakhand, India"
West Bengal,Nil Ratan Sircar Medical College & Hospital,Kolkata,,,SPC,Active,22.5743545,88.3628734,"Kolkata, West Bengal, India"
West Bengal,"IPGMER & SSKM Medical College & Hospital, THU",Kolkata,,,DPC,Active,22.5743545,88.3628734,"Kolkata, West Bengal, India"
West Bengal,"Calcutta Medical College & Hospital, Friday",Kolkata,,,DPC,Active,22.5743545,88.3628734,"Kolkata, West Bengal, India"
West Bengal,"North Bengal Medical College & Hospital, THU",Siliguri,,,DPC,Active,26.7271012,88.39528609999999,"Siliguri, West Bengal, India"
West Bengal,R.G Kar Medical College & Hospital,Kolkata,,,DPC,Active,22.5743545,88.3628734,"Kolkata, West Bengal, India"
West Bengal,"Calcutta National Medical College & Hospital, Kolkata, TUE",Kolkata,,,DPC,Active,22.5743545,88.3628734,"Kolkata, West Bengal, India"
West Bengal,"Burdwan Medical College & Hospital (Burdwan District), FRI",Burdwan,,,DPC,Active,23.2324214,87.8614793,"Bardhaman, West Bengal, India"
West Bengal,"Midnapore Medical College & Hospital, MON",Midnapur,,,DPC,Active,22.4256613,87.3198819,"Midnapore, West Bengal, India"
West Bengal,"Bankura Sammilani Medical College & Hospital, Mon",Bankura,,,DPC,Active,23.2312686,87.07838749999999,"Bankura, West Bengal, India"
West Bengal,Malda Medical College and Hospital (Malda District),Malda,,,DPC,Active,25.0108408,88.14109669999999,"Malda, West Bengal 732101, India"
West Bengal,"College Of Medicine & Sagar Dutta Hospital, Kolkata ",North 24pgs,,,DPC,Active,22.710047,88.7108964,"North 24 Parganas, West Bengal, India"
West Bengal,North Bengal Medical College & Hospital (Wed),Siliguri,,,DPC,Active,26.7271012,88.39528609999999,"Siliguri, West Bengal, India"
West Bengal,Burdwan Medical College & Hospital (Burdwan District) (TH),Burdwan,,,DPC,Active,23.2324214,87.8614793,"Bardhaman, West Bengal, India"
West Bengal,Bankura Sammilani Medical College & Hospital (Sat),Bankura,,,DPC,Active,23.2312686,87.07838749999999,"Bankura, West Bengal, India"
West Bengal,Chanchal Super Speciality Hospital,Malda,,,,Inactive,25.0108408,88.14109669999999,"Malda, West Bengal 732101, India"
West Bengal,CALCUTTA NATIONAL MEDICAL COLLEGE (MONDAY),Kolkata,,,,Inactive,22.5743545,88.3628734,"Kolkata, West Bengal, India"
West Bengal,CALCUTTA NATIONAL MEDICAL COLLEGE (Saturday)  ,Kolkata,,,DPC,Active,22.5743545,88.3628734,"Kolkata, West Bengal, India"
West Bengal,North Bengal Medical College & Hospital (Mon),Siliguri,,,,Inactive,26.7271012,88.39528609999999,"Siliguri, West Bengal, India"
West Bengal,North Bengal Medical College & Hospital (Sat),Siliguri,,,,Inactive,26.7271012,88.39528609999999,"Siliguri, West Bengal, India"
West Bengal,"Maharaja Jitendra Narayan MCH, Cooch Behar",Cooch Behar,,,Volunteer,Active,26.3452397,89.4482079,"Cooch Behar, West Bengal, India"
West Bengal,"Murshidabad MCH, WED",Murshidaabad,,,DPC,Active,24.1759039,88.2801785,"Murshidabad, West Bengal 742149, India"
West Bengal,"Diamond Harbour MCH, WED",South 24pgs,,,DPC,Active,22.1366735,88.55653099999999,"South 24 Parganas, West Bengal, India"
West Bengal,"Deben Mahato Govt. MCH, Purulia, THU",Purulia,,,DPC,Active,23.2482587,86.49965460000001,"Purulia, West Bengal, India"
West Bengal,Rampurhat MCH,Birbhum,,,DPC,Active,23.8401675,87.6186379,"Birbhum, West Bengal, India"
West Bengal,College Of Medicine & Jawarharlal Nehru Memorial Hosp. Kalyani,North 24pgs,,,DPC,Active,22.710047,88.7108964,"North 24 Parganas, West Bengal, India"
West Bengal,"B C Roy Polio Hospital, Wednesday",Kolkata,,,DPC,Inactive,22.5743545,88.3628734,"Kolkata, West Bengal, India"
West Bengal,"Diamond Harbour MCH, Saturday",South 24pgs,,,DPC,Active,22.1366735,88.55653099999999,"South 24 Parganas, West Bengal, India"
West Bengal,"B C Roy Polio Hospital, Friday",Kolkata,,,DPC,Inactive,22.5743545,88.3628734,"Kolkata, West Bengal, India"
West Bengal,"IPGMER & SSKM Medical College & Hospital (Kolkata), TUE",Kolkata,,,DPC,Active,22.5743545,88.3628734,"Kolkata, West Bengal, India"
West Bengal,"Midnapore Medical College & Hospital, Wednesday",Midnapur,,,DPC,Active,22.4256613,87.3198819,"Midnapore, West Bengal, India"
West Bengal,Murshidabad MCH Thursday,Murshidabad,POINT (86.4057744165993 23.450310880110916),,DPC,Active,24.1759039,88.2801785,"Murshidabad, West Bengal 742149, India"
West Bengal,Asansol  DH THU,Paschim Burdwan,,,Volunteer,Active,23.6901657,87.1821709,"Paschim Bardhaman, West Bengal, India"
West Bengal,"Calcutta Medical College & Hospital, Thursday",Kolkata,,,DPC,Active,22.5743545,88.3628734,"Kolkata, West Bengal, India"
West Bengal,"Deben Mahato Govt. MCH, Purulia.Tuesday",Purulia,,,DPC,Active,23.2482587,86.49965460000001,"Purulia, West Bengal, India"
